name,lon,lat,address,pname,cityname,adname,type
中国工商银行(阿坝直属支行),102.2110226,31.90611496,达萨街257-259号,四川省,阿坝藏族羌族自治州,马尔康市,金融保险服务;银行;中国工商银行
中国工商银行(巴中回风支行),106.731177,31.86474255,巴州大道146-156号,四川省,巴中市,巴州区,金融保险服务;银行;中国工商银行
中国工商银行(巴中分行),106.7473602,31.86145512,江北大道中段56号,四川省,巴中市,巴州区,金融保险服务;银行;中国工商银行
中国工商银行(巴中金桥支行),106.7555019,31.85354197,红军路21-23号,四川省,巴中市,巴州区,金融保险服务;银行;中国工商银行
中国工商银行,106.7635211,31.85128476,中城街与东城街交叉口东北20米,四川省,巴中市,巴州区,金融保险服务;银行;中国工商银行
中国工商银行巴中晏阳初大道绿色支行,106.77334,31.85120948,晏阳初大道150、152号,四川省,巴中市,巴州区,金融保险服务;银行;中国工商银行
中国工商银行(巴中恩阳支行),106.6280247,31.79804516,G244恩阳大道,四川省,巴中市,恩阳区,金融保险服务;银行;中国工商银行
中国工商银行(巴中经济开发区支行),106.84709,31.85389829,尚府街558560号,四川省,巴中市,巴州区,金融保险服务;银行;中国工商银行
中国工商银行(南江长赤支行),106.6571846,32.15834429,长赤镇书院街398-408号,四川省,巴中市,南江县,金融保险服务;银行;中国工商银行
中国工商银行(石牛大道支行),107.205398,31.91411255,诺江镇石牛大道888号,四川省,巴中市,通江县,金融保险服务;银行;中国工商银行
中国工商银行(信义大道支行),107.085995,31.58556335,信义大道东段3号上城丽景A3-1-9,四川省,巴中市,平昌县,金融保险服务;银行;中国工商银行
中国工商银行(通江支行),107.2429165,31.91237433,诺江镇诺江中路329号,四川省,巴中市,通江县,金融保险服务;银行;中国工商银行
中国工商银行,107.0850178,31.57021551,金宝大道辅路与七古水东街交叉口南220米,四川省,巴中市,平昌县,金融保险服务;银行;中国工商银行
中国工商银行(平昌支行),107.0997656,31.5614561,平昌县人民政府西南门旁,四川省,巴中市,平昌县,金融保险服务;银行;中国工商银行
中国工商银行(西城分理处),107.2416284,31.91351136,诺江中路,四川省,巴中市,通江县,金融保险服务;银行;中国工商银行
工行营业厅,107.2429025,31.91241033,钟鼓楼街与诺江中路交叉口西20米,四川省,巴中市,通江县,金融保险服务;银行;中国工商银行
中国工商银行,106.2888917,32.22778911,东河镇商业南街,四川省,广元市,旺苍县,金融保险服务;银行;中国工商银行
中国工商银行(城区分理处),106.2911244,32.23140201,新华街134号-140,四川省,广元市,旺苍县,金融保险服务;银行;中国工商银行
中国工商银行(华胥路支行),106.0182274,31.55696888,华胥路376-382号,四川省,南充市,阆中市,金融保险服务;银行;中国工商银行
中国工商银行(阆中支行),105.9986746,31.5556274,巴都大道214-222号,四川省,南充市,阆中市,金融保险服务;银行;中国工商银行
中国工商银行(苍溪支行),105.9450962,31.72637889,杜里路大润发超市1层,四川省,广元市,苍溪县,金融保险服务;银行;中国工商银行
中国工商银行,105.9311123,31.73531314,红军路中段与市场街交叉口东40米,四川省,广元市,苍溪县,金融保险服务;银行;中国工商银行
中国工商银行(阆古城支行),105.9697323,31.57709691,内东街53-67号,四川省,南充市,阆中市,金融保险服务;银行;中国工商银行
中国工商银行(阆中张飞大道支行),105.9706851,31.58914876,张飞北路173、175、177、179、181、183号,四川省,南充市,阆中市,金融保险服务;银行;中国工商银行
中国工商银行(蜀州北路支行),103.6669212,30.64058315,蜀州北路240-248号,四川省,成都市,崇州市,金融保险服务;银行;中国工商银行
中国工商银行(崇州支行),103.670637,30.63006723,大东街17号,四川省,成都市,崇州市,金融保险服务;银行;中国工商银行
中国工商银行(永康西路支行),103.670837,30.62281838,永康西路177-179号,四川省,成都市,崇州市,金融保险服务;银行;中国工商银行
中国工商银行(崇州蜀州中路支行),103.665726,30.62492955,兴隆巷1号,四川省,成都市,崇州市,金融保险服务;银行;中国工商银行
中国工商银行(西江桥支行),103.6559721,30.63100782,滨江路南一段1号,四川省,成都市,崇州市,金融保险服务;银行;中国工商银行
中国工商银行,103.6576764,30.62063898,愿景·河之州西南门旁,四川省,成都市,崇州市,金融保险服务;银行;中国工商银行
中国工商银行(海峡科技园支行),103.8199109,30.68866989,柳台大道东段215-219号,四川省,成都市,温江区,金融保险服务;银行;中国工商银行
中国工商银行(德通桥支行),103.8185705,30.69622978,和平路382-386号,四川省,成都市,温江区,金融保险服务;银行;中国工商银行
中国工商银行,103.8236603,30.70065749,成钞家园3号门旁(市五医院地铁站A2口步行270米),四川省,成都市,温江区,金融保险服务;银行;中国工商银行
中国工商银行(成都杨柳河支行),103.8317501,30.67630368,百信路28号6栋1层10-12号,四川省,成都市,温江区,金融保险服务;银行;中国工商银行
中国工商银行(两河路支行),103.8347995,30.68426939,南熏大道二段835号,四川省,成都市,温江区,金融保险服务;银行;中国工商银行
中国工商银行(温江支行营业室),103.8343211,30.69975609,东大街与文庙街交叉口北20米,四川省,成都市,温江区,金融保险服务;银行;中国工商银行
中国工商银行(成都锦泉街支行),103.8527994,30.68984157,锦泉街285-291号,四川省,成都市,温江区,金融保险服务;银行;中国工商银行
中国工商银行(温泉大道支行),103.8746192,30.68020691,清泉北街31-35(涌泉地铁站C2口步行440米),四川省,成都市,温江区,金融保险服务;银行;中国工商银行
中国工商银行(江安路支行),103.8791668,30.68848757,江安路446号,四川省,成都市,温江区,金融保险服务;银行;中国工商银行
中国工商银行(大邑支行),103.5218172,30.58733658,晋原街道东街124号,四川省,成都市,大邑县,金融保险服务;银行;中国工商银行
中国工商银行,103.530839,30.57292653,张祠堂街与潘家街三段交叉口东20米,四川省,成都市,大邑县,金融保险服务;银行;中国工商银行
中国工商银行(大邑晋原支行),103.5186135,30.58635475,南街9号,四川省,成都市,大邑县,金融保险服务;银行;中国工商银行
中国工商银行(大邑大道支行),103.5242935,30.56880991,大邑大道433号,四川省,成都市,大邑县,金融保险服务;银行;中国工商银行
中国工商银行(双流蛟龙支行),103.9078475,30.60598612,九江镇蛟龙工业港蛟龙大道53-57号,四川省,成都市,双流区,金融保险服务;银行;中国工商银行
中国工商银行(白河路支行),103.9083725,30.56907584,白河路三段32号,四川省,成都市,双流区,金融保险服务;银行;中国工商银行
中国工商银行(成都佳居路支行),103.920502,30.59016493,城北上街265号,四川省,成都市,双流区,金融保险服务;银行;中国工商银行
中国工商银行(双流支行),103.9224767,30.57479716,东升镇丛桂街71号(东升地铁站C口步行280米),四川省,成都市,双流区,金融保险服务;银行;中国工商银行
中国工商银行(现代工业港支行),103.8755985,30.8050733,何公路28西盛大厦F1层,四川省,成都市,郫都区,金融保险服务;银行;中国工商银行
中国工商银行,103.9303206,30.59214251,航都大街二段与葛陌路交叉口东北40米,四川省,成都市,双流区,金融保险服务;银行;中国工商银行
中国工商银行(成都郫都支行),103.8848868,30.80915487,郫筒街道东大街65号,四川省,成都市,郫都区,金融保险服务;银行;中国工商银行
中国工商银行(望东路支行),103.89125,30.80026581,郫筒镇望东路83号(郫筒地铁站D口步行490米),四川省,成都市,郫都区,金融保险服务;银行;中国工商银行
中国工商银行(三强东路支行),103.9259144,30.56998212,三强东路一段5-13(东升地铁站A口步行400米),四川省,成都市,双流区,金融保险服务;银行;中国工商银行
中国工商银行(鹃城支行),103.9007925,30.7977065,科华一路1号,四川省,成都市,郫都区,金融保险服务;银行;中国工商银行
中国工商银行(东三路分理处),103.9569265,30.67305787,光华东三路546、548、550、552、588号8栋附107-110号,四川省,成都市,青羊区,金融保险服务;银行;中国工商银行
中国工商银行(青羊工业园支行),103.9585205,30.68300661,成飞大道131-135号青羊工业总部基地,四川省,成都市,青羊区,金融保险服务;银行;中国工商银行
中国工商银行(成都高新综合保税区支行),103.9258457,30.7809859,高新区尚锦路282号,四川省,成都市,郫都区,金融保险服务;银行;中国工商银行
中国工商银行(成飞大道支行),103.9612117,30.69002837,文光路9号,四川省,成都市,青羊区,金融保险服务;银行;中国工商银行
中国工商银行(安德支行),103.791724,30.87520502,安德街道安平西路133、135、137号,四川省,成都市,郫都区,金融保险服务;银行;中国工商银行
中国工商银行(黄田坝支行),103.9622235,30.69913315,经一路217号,四川省,成都市,青羊区,金融保险服务;银行;中国工商银行
中国工商银行(武青北路支行),103.9737105,30.66021348,武青北路21号3栋1层1号(培风地铁站J口旁),四川省,成都市,武侯区,金融保险服务;银行;中国工商银行
中国工商银行(东方电气支行),103.9578705,30.7455974,郫都区高新西区百草路777号(金辉悦府楼底下),四川省,成都市,郫都区,金融保险服务;银行;中国工商银行
中国工商银行(成都智远支行),103.974925,30.61889324,智远大道800-802-806号(来凤五路262-266号),四川省,成都市,武侯区,金融保险服务;银行;中国工商银行
中国工商银行(红光支行),103.9473498,30.78186507,广场路北一段118号,四川省,成都市,郫都区,金融保险服务;银行;中国工商银行
中国工商银行(金福路支行),103.9829383,30.67985175,金福路357-375号,四川省,成都市,青羊区,金融保险服务;银行;中国工商银行
中国工商银行(武侯科技园支行),103.9868544,30.63142854,武科东二路11号附4号,四川省,成都市,武侯区,金融保险服务;银行;中国工商银行
中国工商银行(蜀西路支行),103.9782102,30.72229009,阳光街18号112,四川省,成都市,金牛区,金融保险服务;银行;中国工商银行
中国工商银行(机场支行),103.9602351,30.56930978,双流机场内六号路四川机场集团公司商务楼1层,四川省,成都市,双流区,金融保险服务;银行;中国工商银行
中国工商银行(成都珠江路支行),103.9623787,30.75963795,犀浦街道珠江路26号中铁十五局西南工程综合大楼1层,四川省,成都市,郫都区,金融保险服务;银行;中国工商银行
中国工商银行(成都犀浦支行),103.9682395,30.76033572,国宁西路98号(犀浦地铁站C口步行110米),四川省,成都市,郫都区,金融保险服务;银行;中国工商银行
中国工商银行(金履四路支行),103.9848568,30.61126101,武侯大道铁佛段金履四路2号(近邓小平广场),四川省,成都市,武侯区,金融保险服务;银行;中国工商银行
中国工商银行(创业路支行),103.9681168,30.75036792,犀浦街道兴业街南段168号,四川省,成都市,郫都区,金融保险服务;银行;中国工商银行
中国工商银行(成都川航支行),103.9644078,30.57101259,机场南四路68号四川航空大厦1层,四川省,成都市,双流区,金融保险服务;银行;中国工商银行
中国工商银行(瑞星路支行),103.9923461,30.66830661,瑞星路99号附26-28号,四川省,成都市,青羊区,金融保险服务;银行;中国工商银行
中国工商银行(蜀辉路分理处),103.994277,30.67880134,蜀辉路1-7号(清江西路地铁站E口步行130米),四川省,成都市,青羊区,金融保险服务;银行;中国工商银行
中国工商银行(东坡大道支行),103.990681,30.6620748,东坡路423-431号,四川省,成都市,青羊区,金融保险服务;银行;中国工商银行
中国工商银行(晋康街支行),103.9965013,30.65105179,晋阳路215号之附9-12号,四川省,成都市,武侯区,金融保险服务;银行;中国工商银行
中国工商银行(新津支行),103.80948,30.42528981,岷江国际新城东北门东南80米,四川省,成都市,新津区,金融保险服务;银行;中国工商银行
中国工商银行,103.9909794,30.71384478,金科南路1号黑格中心A座,四川省,成都市,金牛区,金融保险服务;银行;中国工商银行
中国工商银行(西南航空港支行),103.9870623,30.57507562,常乐二段12号附125-128号,四川省,成都市,双流区,金融保险服务;银行;中国工商银行
中国工商银行(成都贝森南路支行),104.0005522,30.67031126,贝森南路99号,四川省,成都市,青羊区,金融保险服务;银行;中国工商银行
中国工商银行(金阳路支行),104.000857,30.67843109,蜀源路11-17号,四川省,成都市,青羊区,金融保险服务;银行;中国工商银行
中国工商银行(成都簇桥支行),103.9933765,30.59883192,文昌路2号,四川省,成都市,武侯区,金融保险服务;银行;中国工商银行
中国工商银行(西南交大新区支行),103.9855634,30.75075826,龙梓街215号,四川省,成都市,郫都区,金融保险服务;银行;中国工商银行
中国工商银行(杨桥路分理处),103.9660222,30.53248727,杨桥路190号,四川省,成都市,双流区,金融保险服务;银行;中国工商银行
中国工商银行(光华大道支行),104.0017906,30.66625429,"瑞联路3号附34,35,36号",四川省,成都市,青羊区,金融保险服务;银行;中国工商银行
中国工商银行(成都青羊大道支行),104.0048203,30.65751635,青羊大道7号附1-5号(东坡路地铁站A口步行430米),四川省,成都市,青羊区,金融保险服务;银行;中国工商银行
中国工商银行(五津西路支行),103.8083489,30.41556106,五津西路1-5号,四川省,成都市,新津区,金融保险服务;银行;中国工商银行
中国工商银行(蜀汉路支行),104.0083305,30.69574948,蜀汉路530号附1-7号,四川省,成都市,金牛区,金融保险服务;银行;中国工商银行
中国工商银行(鹭岛支行),104.0095674,30.64586939,鹭岛路15-19号,四川省,成都市,武侯区,金融保险服务;银行;中国工商银行
中国工商银行(新津武阳路支行),103.8095472,30.41221408,武阳中路35号附6号,四川省,成都市,新津区,金融保险服务;银行;中国工商银行
中国工商银行(望津阁西),103.8010105,30.41443639,武阳西路与海林西巷交叉口西80米,四川省,成都市,新津区,金融保险服务;银行;中国工商银行
中国工商银行(川大西路支行),103.986881,30.55120309,金色校园广场1号(文星地铁站C口步行70米),四川省,成都市,双流区,金融保险服务;银行;中国工商银行
中国工商银行(成都武侯大道支行),104.0154705,30.6391563,武侯大道双楠段36号附8-10号,四川省,成都市,武侯区,金融保险服务;银行;中国工商银行
中国工商银行(东电集团支行),104.0137854,30.69206634,蜀汉路333号附2号(一品天下地铁站D口步行300米),四川省,成都市,金牛区,金融保险服务;银行;中国工商银行
中国工商银行(栖霞路分理处)(装修中),104.0154204,30.64289223,栖霞路1号附9-13号,四川省,成都市,武侯区,金融保险服务;银行;中国工商银行
中国工商银行(峨影支行),104.0200281,30.67128651,清江东路362号附3号,四川省,成都市,青羊区,金融保险服务;银行;中国工商银行
中国工商银行(盛兴路支行),104.0099775,30.73189071,盛兴路256号,四川省,成都市,金牛区,金融保险服务;银行;中国工商银行
中国工商银行(同辉支行),104.0177136,30.64610908,逸都路6号附24号,四川省,成都市,武侯区,金融保险服务;银行;中国工商银行
中国工商银行(茶店子支行),104.0243329,30.69513189,一品天下大街310号(茶店子地铁站D2口步行340米),四川省,成都市,金牛区,金融保险服务;银行;中国工商银行
中国工商银行(成都同善桥南街支行),104.0195286,30.68213332,同善桥南街9号附5号,四川省,成都市,青羊区,金融保险服务;银行;中国工商银行
中国工商银行(天邑花园支行),104.0183053,30.65904781,二环路西一段99号附12-13号,四川省,成都市,青羊区,金融保险服务;银行;中国工商银行
中国工商银行(西二巷支行),104.01929,30.69747603,营康西路495号,四川省,成都市,金牛区,金融保险服务;银行;中国工商银行
中国工商银行(紫藤支行),104.0235333,30.65212874,大石西路66号附12-14号,四川省,成都市,青羊区,金融保险服务;银行;中国工商银行
中国工商银行(成都清溪支行),104.0233003,30.67902824,二环路西二段66号附1号,四川省,成都市,青羊区,金融保险服务;银行;中国工商银行
中国工商银行(双楠小区支行),104.0251077,30.64627779,双楠路9号,四川省,成都市,武侯区,金融保险服务;银行;中国工商银行
中国工商银行(罗家碾支行),104.0308017,30.66942514,清江东路122号(草堂北路地铁站B口步行430米),四川省,成都市,青羊区,金融保险服务;银行;中国工商银行
中国工商银行(抚琴西路支行),104.0297991,30.68138895,北站西二巷4号附2-3号,四川省,成都市,金牛区,金融保险服务;银行;中国工商银行
中国工商银行(蜀汉路atm),104.0236981,30.6851411,蜀汉路与同善街交叉口西80米,四川省,成都市,金牛区,金融保险服务;银行;中国工商银行
中国工商银行(成都长城西一路支行),104.0278786,30.63396592,优客联邦二期东北门旁(红牌楼地铁站D口步行250米),四川省,成都市,武侯区,金融保险服务;银行;中国工商银行
中国工商银行(唐昌支行),103.8219877,30.9253168,唐昌镇南正街79-87号,四川省,成都市,郫都区,金融保险服务;银行;中国工商银行
中国工商银行(广福桥北街支行),104.0318469,30.64241661,广福桥北街6号附16-20号,四川省,成都市,武侯区,金融保险服务;银行;中国工商银行
中国工商银行(大石西路支行),104.0341819,30.65214934,大石西路12号附6号,四川省,成都市,青羊区,金融保险服务;银行;中国工商银行
中国工商银行(长庆路支行),104.0333327,30.70730332,长庆路3号附1-2号,四川省,成都市,金牛区,金融保险服务;银行;中国工商银行
中国工商银行(高升桥东路分理处),104.0387071,30.63511849,高升桥东路17号附1号,四川省,成都市,武侯区,金融保险服务;银行;中国工商银行
中国工商银行(成都抚琴支行),104.0381505,30.67643673,永陵路39号(抚琴地铁站C1口步行90米),四川省,成都市,金牛区,金融保险服务;银行;中国工商银行
中国工商银行(一品天下分理处),104.0361603,30.70181432,一品天下大街926-942号,四川省,成都市,金牛区,金融保险服务;银行;中国工商银行
中国工商银行(青羊宫支行),104.0419477,30.65907392,琴台路10号(青羊宫地铁站C口步行430米),四川省,成都市,青羊区,金融保险服务;银行;中国工商银行
中国工商银行(成都永丰路支行),104.0389947,30.62095975,创业路18号高新大厦F1层,四川省,成都市,武侯区,金融保险服务;银行;中国工商银行
中国工商银行(交大路支行),104.0384854,30.70734612,交大路203号千佳大厦F1层,四川省,成都市,金牛区,金融保险服务;银行;中国工商银行
中国工商银行,104.0374711,30.60507211,新乐南街111号附3号,四川省,成都市,武侯区,金融保险服务;银行;中国工商银行
中国工商银行(花牌坊支行),104.0396954,30.68505951,营门口路56-60号,四川省,成都市,金牛区,金融保险服务;银行;中国工商银行
中国工商银行(金牛支行营业室),104.0476813,30.69167408,沙湾路268号附二号三楼(沙湾地铁站A2口旁),四川省,成都市,金牛区,金融保险服务;银行;中国工商银行
中国工商银行(成都高新支行营业室),104.0484799,30.62780426,芳草西二街1号3-4楼(芳草街地铁站C1口步行60米),四川省,成都市,武侯区,金融保险服务;银行;中国工商银行
中国工商银行(金府路支行),104.0402603,30.71860584,金府路799号金府国际1期2栋1单元5号,四川省,成都市,金牛区,金融保险服务;银行;中国工商银行
中国工商银行(西较场支行),104.0428959,30.65756091,锦里西路96号附1-3号,四川省,成都市,青羊区,金融保险服务;银行;中国工商银行
中国工商银行(成都武侯祠支行),104.0462369,30.64508202,武侯祠大街232号,四川省,成都市,武侯区,金融保险服务;银行;中国工商银行
中国工商银行(二环路北一段支行),104.0416563,30.69506024,二环路北一段85号附20-26号,四川省,成都市,金牛区,金融保险服务;银行;中国工商银行
中国工商银行,104.014273,30.56191882,川大路一段与川大路东延线交叉口南120米,四川省,成都市,双流区,金融保险服务;银行;中国工商银行
中国工商银行(成都青龙支行),104.0617901,30.67085095,青龙街25号(文殊院地铁站E口步行260米),四川省,成都市,青羊区,金融保险服务;银行;中国工商银行
中国工商银行(安靖支行),104.0345165,30.74548554,安靖镇正义路998号,四川省,成都市,金牛区,金融保险服务;银行;中国工商银行
中国工商银行(滨江支行),104.0583855,30.64893349,滨江西路12号,四川省,成都市,锦江区,金融保险服务;银行;中国工商银行
中国工商银行(小南街支行),104.04998,30.65528868,小南街123号附8-9(冠城花园3期5幢1层7-9号),四川省,成都市,青羊区,金融保险服务;银行;中国工商银行
中国工商银行(紫荆西路支行),104.0454618,30.61789556,紫荆西路31-33号,四川省,成都市,武侯区,金融保险服务;银行;中国工商银行
中国工商银行,104.0477409,30.67648637,三洞桥路,四川省,成都市,金牛区,金融保险服务;银行;中国工商银行
中国工商银行(盛邦街支行),104.0343284,30.55607116,尚郡北门899号,四川省,成都市,武侯区,金融保险服务;银行;中国工商银行
中国工商银行(浆洗街支行),104.053499,30.64273579,浆洗街1号附2-4号,四川省,成都市,武侯区,金融保险服务;银行;中国工商银行
中国工商银行(成都白马寺支行),104.0565038,30.68669385,西体北路10号附1号(西北桥地铁站A3口步行110米),四川省,成都市,金牛区,金融保险服务;银行;中国工商银行
中国工商银行(西马棚分理处),104.0530689,30.67058028,长顺下街1-9号,四川省,成都市,青羊区,金融保险服务;银行;中国工商银行
中国工商银行(成都实业街支行),104.0522869,30.66630439,实业街9号附1号,四川省,成都市,青羊区,金融保险服务;银行;中国工商银行
中国工商银行(成都群星路支行),104.0507603,30.70421873,群星路42-48号,四川省,成都市,金牛区,金融保险服务;银行;中国工商银行
中国工商银行(东城根街支行),104.0573608,30.66228328,东城根上街93号(桂楼大厦1楼),四川省,成都市,青羊区,金融保险服务;银行;中国工商银行
中国工商银行(成都金牛通锦桥支行),104.0532126,30.6799611,西体路1号(中地大厦1栋1层4-8号),四川省,成都市,金牛区,金融保险服务;银行;中国工商银行
中国工商银行(成都桐梓林南路支行),104.0548364,30.6128513,桐梓林南路12号,四川省,成都市,武侯区,金融保险服务;银行;中国工商银行
中国工商银行(民丰大道支行),104.0534926,30.57612804,锦城大道831-837号,四川省,成都市,武侯区,金融保险服务;银行;中国工商银行
中国工商银行(华西医院分理处),104.0573706,30.64266565,国学巷37号四川大学华西医院,四川省,成都市,武侯区,金融保险服务;银行;中国工商银行
中国工商银行(盐市口支行),104.0667466,30.65242111,锦兴路63号,四川省,成都市,锦江区,金融保险服务;银行;中国工商银行
中国工商银行,104.0485929,30.62793125,四川教育考试大厦东南2门旁,四川省,成都市,武侯区,金融保险服务;银行;中国工商银行
中国工商银行(西北桥支行),104.0596821,30.68968067,西北桥北街157号,四川省,成都市,金牛区,金融保险服务;银行;中国工商银行
中国工商银行(倪家桥支行),104.0552159,30.62603404,倪家桥路11号附5-6号,四川省,成都市,武侯区,金融保险服务;银行;中国工商银行
中国工商银行(西南交通大学支行),104.0506466,30.69640888,二环路北一段111号西南交通大学行政办公楼底商,四川省,成都市,金牛区,金融保险服务;银行;中国工商银行
中国工商银行(建机厂支行),104.0509862,30.73372616,古柏路53号附3号,四川省,成都市,金牛区,金融保险服务;银行;中国工商银行
中国工商银行(跳伞塔支行),104.0633111,30.62613773,人民南路四段22号(倪家桥地铁站D口步行60米),四川省,成都市,武侯区,金融保险服务;银行;中国工商银行
中国工商银行(剑南大道支行),104.0438162,30.54741895,剑南大道中段1359号1楼,四川省,成都市,武侯区,金融保险服务;银行;中国工商银行
中国工商银行(蓉北商贸大道支行),104.0608635,30.70996324,五福桥东路229号32栋,四川省,成都市,金牛区,金融保险服务;银行;中国工商银行
中国工商银行(桐梓林北街支行),104.0594109,30.61742204,桐梓林北路10号武海大厦F1层,四川省,成都市,武侯区,金融保险服务;银行;中国工商银行
中国工商银行(成都大丰支行),104.0494048,30.76432963,丰怡阳光A区南门东50米,四川省,成都市,新都区,金融保险服务;银行;中国工商银行
中国工商银行(邛崃蜚虹路支行),103.4728891,30.41766483,蜚虹路343-345号,四川省,成都市,邛崃市,金融保险服务;银行;中国工商银行
中国工商银行(花都大道支行),104.0570379,30.7616464,花都大道769号(石犀公园地铁站D2口旁),四川省,成都市,新都区,金融保险服务;银行;中国工商银行
中国工商银行(天府一街支行),104.0531951,30.56174732,益州大道中段388号,四川省,成都市,武侯区,金融保险服务;银行;中国工商银行
中国工商银行(天仁路支行),104.0658984,30.60299807,天仁路387号(火车南站地铁站H1口步行170米),四川省,成都市,武侯区,金融保险服务;银行;中国工商银行
中国工商银行(成都王贾路支行),104.0657108,30.71917889,王贾路18号1栋103-106号,四川省,成都市,金牛区,金融保险服务;银行;中国工商银行
中国工商银行(天顺路支行),104.0681621,30.59268117,天顺路120-122,四川省,成都市,武侯区,金融保险服务;银行;中国工商银行
中国工商银行(成都航空路支行),104.067169,30.61704276,航空路6号丰德国际广场F1层,四川省,成都市,武侯区,金融保险服务;银行;中国工商银行
中国工商银行-社保卡受理点,104.0667416,30.65244411,锦兴路与青石桥南街交叉口西60米,四川省,成都市,锦江区,金融保险服务;银行;中国工商银行
中国工商银行(成都顺兴路支行),104.0230838,30.49280479,融创·南湖逸家1号门北140米,四川省,成都市,双流区,金融保险服务;银行;中国工商银行
中国工商银行(天府支行),104.0617439,30.5722978,环球中心1层,四川省,成都市,武侯区,金融保险服务;银行;中国工商银行
中国工商银行(邛崃支行营业部),103.4577301,30.41196367,南街110-114号,四川省,成都市,邛崃市,金融保险服务;银行;中国工商银行
中国工商银行(都江堰支行营业室),103.6535965,30.98664886,都江堰大道376号金融中心4号楼,四川省,成都市,都江堰市,金融保险服务;银行;中国工商银行
中国工商银行(江安河东路支行),103.6230634,30.98063418,江安河东路中段1号,四川省,成都市,都江堰市,金融保险服务;银行;中国工商银行
中国工商银行(华府大道支行),104.0487616,30.52791913,华府大道一段848-856号,四川省,成都市,双流区,金融保险服务;银行;中国工商银行
中国工商银行(长安大道支行),103.4745102,30.40394909,长安大道522号附16-附20号,四川省,成都市,邛崃市,金融保险服务;银行;中国工商银行
中国工商银行,103.8905141,30.40247289,龙凤怡安西北门东北90米,四川省,成都市,新津区,金融保险服务;银行;中国工商银行
中国工商银行(迎宾大道支行),103.6343443,30.98398067,迎宾路132-138号,四川省,成都市,都江堰市,金融保险服务;银行;中国工商银行
中国工商银行(华阳支行),104.0532751,30.50733333,正北上街38号,四川省,成都市,双流区,金融保险服务;银行;中国工商银行
中国工商银行(益州大道支行),104.0547153,30.53505276,益州大道伏龙北巷12号,四川省,成都市,双流区,金融保险服务;银行;中国工商银行
中国工商银行(府河音乐花园支行),104.0531344,30.52467702,滨河路三段7-9(华阳镇华兴大道府河音乐花园2号),四川省,成都市,双流区,金融保险服务;银行;中国工商银行
中国工商银行(幸福家园支行),103.6358855,30.99032946,都江堰大道132号附2-3,四川省,成都市,都江堰市,金融保险服务;银行;中国工商银行
中国工商银行(成都邛崃东星支行),103.4601104,30.40110382,临邛镇朱水碾街255号(鼎盛时代广场),四川省,成都市,邛崃市,金融保险服务;银行;中国工商银行
中国工商银行,104.0631256,30.63679054,人民南路三段与金陵横路交叉口北100米,四川省,成都市,武侯区,金融保险服务;银行;中国工商银行
中国工商银行(都江堰东门支行),103.626832,30.99310375,都江堰大道131-135号,四川省,成都市,都江堰市,金融保险服务;银行;中国工商银行
中国工商银行(新繁支行),104.0163793,30.87553268,正东街64号,四川省,成都市,新都区,金融保险服务;银行;中国工商银行
中国工商银行彭州协和路支行,103.9427956,30.93455116,环湖路一段4-8号,四川省,成都市,彭州市,金融保险服务;银行;中国工商银行
中国工商银行(第二储蓄所),103.4524347,30.41237591,泓宇宜家名苑东南1门西130米,四川省,成都市,邛崃市,金融保险服务;银行;中国工商银行
中国工商银行(彭州朝阳南路支行),103.948551,30.97798307,朝阳南路468-478号,四川省,成都市,彭州市,金融保险服务;银行;中国工商银行
中国工商银行(彭州支行),103.9390855,30.98657123,北大街69号,四川省,成都市,彭州市,金融保险服务;银行;中国工商银行
中国工商银行(泰安北路支行),103.9499246,30.99526467,天彭镇泰安北路140-148号,四川省,成都市,彭州市,金融保险服务;银行;中国工商银行
中国工商银行(新城支行),103.9566556,30.99093351,天彭镇牡丹东路60-62号,四川省,成都市,彭州市,金融保险服务;银行;中国工商银行
中国工商银行(眉山天府支行),104.0479735,30.22733669,腾飞大道与腾飞大道二段交叉口东60米,四川省,眉山市,仁寿县,金融保险服务;银行;中国工商银行
中国工商银行(金堂淮洲支行),104.5626726,30.71303867,淮口街道锦淮商业街1-103号3栋1层1号、19号,四川省,成都市,金堂县,金融保险服务;银行;中国工商银行
成都市高速公路ETC安装点(工行金堂淮洲支行),104.5627316,30.71303667,锦淮商业街1号,四川省,成都市,金堂县,金融保险服务;银行;中国工商银行|生活服务;生活服务场所;生活服务场所
中国工商银行(兴隆支行),104.5907912,30.86770244,兴隆财富·未来城泰龙金街,四川省,德阳市,中江县,金融保险服务;银行;中国工商银行
中国工商银行(简阳雄州大道支行),104.5345135,30.42900078,雄州大道北段278号13栋1层4号、280号13栋1层3号,四川省,成都市,简阳市,金融保险服务;银行;中国工商银行
中国工商银行(天津路支行),104.5400536,30.40975786,金融街144-146号,四川省,成都市,简阳市,金融保险服务;银行;中国工商银行
中国工商银行(简阳支行),104.5446283,30.3950559,简城镇北街64号,四川省,成都市,简阳市,金融保险服务;银行;中国工商银行
中国工商银行(简阳南街分理处),104.5495312,30.39053579,南街167号,四川省,成都市,简阳市,金融保险服务;银行;中国工商银行
中国工商银行(滨江路支行)(装修中),104.4257376,30.85023005,滨江路一段29号,四川省,成都市,金堂县,金融保险服务;银行;中国工商银行
中国工商银行(金堂支行),104.4186384,30.85789716,赵镇十里大道339号汇丰源6幢1层1号、2层1号,四川省,成都市,金堂县,金融保险服务;银行;中国工商银行|生活服务;生活服务场所;生活服务场所
中国工商银行(川空储蓄所),104.5389724,30.38558024,简城镇广场路171号、173号、175号,四川省,成都市,简阳市,金融保险服务;银行;中国工商银行
中国工商银行(金堂迎宾大道支行),104.4061487,30.85065969,赵镇迎宾大道149-151-153-155-157号,四川省,成都市,金堂县,金融保险服务;银行;中国工商银行
中国工商银行(中江中市街支行),104.6613541,31.02295191,金银花北街535号京基御府1期1栋103号,四川省,德阳市,中江县,金融保险服务;银行;中国工商银行
中国工商银行(中江县支行营业部),104.6758488,31.03917423,凯江镇伍城中路53号,四川省,德阳市,中江县,金融保险服务;银行;中国工商银行
中国工商银行(中江凯丰支行),104.6718156,31.05062018,凯江镇凯丰北路109号,四川省,德阳市,中江县,金融保险服务;银行;中国工商银行
中国工商银行(龙泉支行营业室),104.2709466,30.55822724,龙泉东街68号,四川省,成都市,龙泉驿区,金融保险服务;银行;中国工商银行
中国工商银行(建设路支行),104.2702633,30.5621052,建设路66号附4号,四川省,成都市,龙泉驿区,金融保险服务;银行;中国工商银行
中国工商银行(成都城厢支行),104.3173278,30.85667055,上北街2-24号,四川省,成都市,青白江区,金融保险服务;银行;中国工商银行
中国工商银行(石板滩支行),104.2644035,30.72649261,蓉海东悦华府东南门东90米,四川省,成都市,新都区,金融保险服务;银行;中国工商银行
中国工商银行(西河支行),104.2473539,30.64420163,西河街道黄泥堰路577号馨竹苑小区临街商铺7栋附116号,四川省,成都市,龙泉驿区,金融保险服务;银行;中国工商银行
中国工商银行(龙泉广场支行),104.2659578,30.56079238,鸥鹏大道9号附1号(龙泉驿地铁站D2口旁),四川省,成都市,龙泉驿区,金融保险服务;银行;中国工商银行
中国工商银行(成都空港新城机场支行),104.4478266,30.32954736,东部新区翱翔街75号机场安全检查大楼L1层107-113号,四川省,成都市,简阳市,金融保险服务;银行;中国工商银行
中国工商银行(驿泉路支行),104.2458068,30.56935497,龙泉街道驿泉路1号怡水居15栋1-2层1号,四川省,成都市,龙泉驿区,金融保险服务;银行;中国工商银行
中国工商银行(龙泉航天路支行),104.2583961,30.55581374,龙泉街道平江北路2号,四川省,成都市,龙泉驿区,金融保险服务;银行;中国工商银行
中国工商银行,104.2709106,30.55828824,东街与新驿步行街一段交叉口南40米,四川省,成都市,龙泉驿区,金融保险服务;银行;中国工商银行
中国工商银行(成都龙工南路支行),104.2527681,30.54300617,龙工南路777号2栋1楼1-4号,四川省,成都市,龙泉驿区,金融保险服务;银行;中国工商银行
中国工商银行(乐至支行),105.0115287,30.28778103,天池街道迎宾大道天池府邸商住楼26号-4-7号,四川省,资阳市,乐至县,金融保险服务;银行;中国工商银行
中国工商银行(乐至北街支行),105.0230994,30.28006471,天池街道北街60号(新华书店旁),四川省,资阳市,乐至县,金融保险服务;银行;中国工商银行
中国工商银行(帅乡大道支行),105.0186693,30.27785788,天池街道帅乡大道,四川省,资阳市,乐至县,金融保险服务;银行;中国工商银行
中国工商银行(成都大弯中路支行),104.2662524,30.87735391,大弯中路5-13号,四川省,成都市,青白江区,金融保险服务;银行;中国工商银行
中国工商银行,105.0259893,30.28332258,民乐路与文庙街交叉口西20米,四川省,资阳市,乐至县,金融保险服务;银行;中国工商银行
中国工商银行(成都新河路支行),104.2549005,30.88937909,大弯凤祥大道871-883号,四川省,成都市,青白江区,金融保险服务;银行;中国工商银行
中国工商银行乐至北街支行工会驿站,105.0230104,30.28000972,北街60号,四川省,资阳市,乐至县,金融保险服务;银行;中国工商银行
中国工商银行,105.0261869,30.27841762,天池镇北街60号,四川省,资阳市,乐至县,金融保险服务;银行;中国工商银行
中国工商银行(怡湖西路支行),104.2502484,30.88221437,政府中路199号院西门北120米,四川省,成都市,青白江区,金融保险服务;银行;中国工商银行
中国工商银行(成都金茶路支行),104.1916116,30.57037395,金茶路112号、114号,四川省,成都市,龙泉驿区,金融保险服务;银行;中国工商银行
中国工商银行(华金大道支行),104.2593993,30.88453702,青江苑西门旁,四川省,成都市,青白江区,金融保险服务;银行;中国工商银行
中国工商银行乐至帅乡大道支行工会驿站,105.0186623,30.27783588,帅乡大道223号,四川省,资阳市,乐至县,金融保险服务;银行;中国工商银行
中国工商银行(成都总部经济港支行),104.1825315,30.56782833,成龙大道二段888号总部经济港A区1幢1层,四川省,成都市,龙泉驿区,金融保险服务;银行;中国工商银行
中国工商银行(十陵支行),104.1733181,30.65345615,灵龙路494-506号,四川省,成都市,龙泉驿区,金融保险服务;银行;中国工商银行
中国工商银行(龙潭工业园区支行),104.164182,30.69302177,华泰路33号附1号,四川省,成都市,成华区,金融保险服务;银行;中国工商银行
中国工商银行(飞行学院支行),104.3028978,30.95265537,南昌路四段46中国民用航空飞行学院,四川省,德阳市,广汉市,金融保险服务;银行;中国工商银行
中国工商银行(成都城东支行),104.1890623,30.81126875,兴乐北路151号,四川省,成都市,新都区,金融保险服务;银行;中国工商银行
中国工商银行(万科路支行),104.1512814,30.62617445,万科路4号1幢101-102号、2幢105-07号,四川省,成都市,成华区,金融保险服务;银行;中国工商银行
中国工商银行(洪河大道支行),104.1640116,30.61603316,洪河中路705号,四川省,成都市,龙泉驿区,金融保险服务;银行;中国工商银行
中国工商银行(成都东部新区支行),104.3202245,30.31478238,三岔街道公园大道2568号西部金融创新中心3号楼3-1-3,四川省,成都市,简阳市,金融保险服务;银行;中国工商银行
中国工商银行(广汉支行),104.2780549,30.97892873,万寿街一段69号,四川省,德阳市,广汉市,金融保险服务;银行;中国工商银行
中国工商银行(西南石油大学支行),104.1766033,30.821867,新都大道8号校研发大楼附楼1层,四川省,成都市,新都区,金融保险服务;银行;中国工商银行
中国工商银行(广汉佛山路支行),104.2761503,30.96868997,佛山路西一段,四川省,德阳市,广汉市,金融保险服务;银行;中国工商银行
中国工商银行(成都银杏大道支行),104.1513472,30.58895911,银杏大道349、351、353、355号,四川省,成都市,锦江区,金融保险服务;银行;中国工商银行
中国工商银行(成都新都马超西路支行),104.1675257,30.81294348,香城大道马超西路段与新园路交叉口东40米,四川省,成都市,新都区,金融保险服务;银行;中国工商银行
中国工商银行(成都玫瑰街支行),104.1514555,30.60321986,玫瑰街64、66号(春树街623、625、627号),四川省,成都市,锦江区,金融保险服务;银行;中国工商银行
中国工商银行(蓉都大道支行),104.1505303,30.79954133,雄飞北尚广场1层(锦水河地铁站G口步行60米),四川省,成都市,新都区,金融保险服务;银行;中国工商银行
中国工商银行(成都新都支行),104.1581659,30.82799253,小北街一巷附2号,四川省,成都市,新都区,金融保险服务;银行;中国工商银行|金融保险服务;银行相关;银行相关
中国工商银行(三台支行),105.0870753,31.08678567,老西街与上南街交叉口西北20米,四川省,绵阳市,三台县,金融保险服务;银行;中国工商银行
中国工商银行(成都理工大学支行),104.1357521,30.67453814,二仙桥东3路1号成都理工大学-学术交流中心营业用房,四川省,成都市,成华区,金融保险服务;银行;中国工商银行
中国工商银行(广汉北区支行),104.2752717,30.9966295,天津路西一路19号,四川省,德阳市,广汉市,金融保险服务;银行;中国工商银行
中国工商银行(东汽支行),104.3718979,31.0700941,八角镇经济开发区东汽2号门,四川省,德阳市,旌阳区,金融保险服务;银行;中国工商银行
中国工商银行(机车厂分理处),104.137193,30.68254295,东华一路37号(十里店地铁站A2口步行450米),四川省,成都市,成华区,金融保险服务;银行;中国工商银行
中国工商银行(成龙大道分理处),104.1320351,30.59683569,成龙大道一段9号4栋1-3,四川省,成都市,锦江区,金融保险服务;银行;中国工商银行
中国工商银行(三台梓州支行),105.0866058,31.09151962,新西街新世纪大厦三台县潼川镇解放上街49号近梓州商业中心内,四川省,绵阳市,三台县,金融保险服务;银行;中国工商银行
中国工商银行(三台城西支行),105.0753475,31.09063395,城市春天A区东北门东南100米,四川省,绵阳市,三台县,金融保险服务;银行;中国工商银行
中国工商银行(槐庭路支行),104.1305896,30.64809182,鲁能城1区北1门旁,四川省,成都市,成华区,金融保险服务;银行;中国工商银行
中国工商银行(成都杉板桥支行)(线上ETC网点),104.1278116,30.66239866,,四川省,成都市,成华区,金融保险服务;银行;中国工商银行
中国工商银行(德阳开发区支行),104.3996726,31.09617877,鞍山路天籁福楼3幢第1层12-16号,四川省,德阳市,旌阳区,金融保险服务;银行;中国工商银行
中国工商银行(建设南路支行),104.1211552,30.67319571,圣灯路155号,四川省,成都市,成华区,金融保险服务;银行;中国工商银行
中国工商银行(广汉韶山路支行),104.2666837,30.98157905,雒城街道韶山路二段7号书香名邸旁,四川省,德阳市,广汉市,金融保险服务;银行;中国工商银行
中国工商银行(新西街分理处),105.0859171,31.08874168,上南街,四川省,绵阳市,三台县,金融保险服务;银行;中国工商银行
中国工商银行(成都万年场支行),104.1123349,30.6532984,双庆路99号附6-14号,四川省,成都市,成华区,金融保险服务;银行;中国工商银行
中国工商银行(三台东河路支行),105.0920357,31.09522742,北坝镇梓州干道山鑫鑫概念一楼,四川省,绵阳市,三台县,金融保险服务;银行;中国工商银行
中国工商银行(沙河支行),104.0980784,30.6655137,一环路东二段108号(新鸿路地铁站A口步行130米),四川省,成都市,成华区,金融保险服务;银行;中国工商银行|金融保险服务;自动提款机;中国工商银行ATM
中国工商银行(工农村分理处),104.3809792,31.0938054,工农村云峰山路222号,四川省,德阳市,旌阳区,金融保险服务;银行;中国工商银行
中国工商银行(新都工业大道支行)(装修中),104.165936,30.80243873,丽水金都东南2门西南80米,四川省,成都市,新都区,金融保险服务;银行;中国工商银行
中国工商银行(成都二仙桥支行),104.1210039,30.68129956,建设北路三段289号附13-19号,四川省,成都市,成华区,金融保险服务;银行;中国工商银行
中国工商银行(芷泉支行营业室),104.0898131,30.64630236,一环路东五段103号中国工商银行大厦,四川省,成都市,锦江区,金融保险服务;银行;中国工商银行
中国工商银行(桂湖西路支行),104.1518393,30.82354184,,四川省,成都市,新都区,金融保险服务;银行;中国工商银行
中国工商银行(万象城支行),104.1123152,30.64655652,双成二路158号附26、27,四川省,成都市,成华区,金融保险服务;银行;中国工商银行
中国工商银行(成都通汇街支行),104.1116364,30.63917468,通汇街219、221、223、225,四川省,成都市,锦江区,金融保险服务;银行;中国工商银行
中国工商银行(德阳旌南支行),104.3892984,31.10228799,泰山南路二段733号碧乐城F1层,四川省,德阳市,旌阳区,金融保险服务;银行;中国工商银行
中国工商银行(锦江支行),104.0796061,30.65871251,藩库街9号(市二医院地铁站A口步行400米),四川省,成都市,锦江区,金融保险服务;银行;中国工商银行
中国工商银行(四川师范大学支行),104.1256492,30.61896453,佳宏北路67号、静明路48号(比华利三期楼下),四川省,成都市,锦江区,金融保险服务;银行;中国工商银行
中国工商银行(水杉街支行),104.1237576,30.60414287,水杉街蓝谷地1栋1层3-4号,四川省,成都市,锦江区,金融保险服务;银行;中国工商银行
中国工商银行(双桥子支行),104.1012986,30.64754791,水碾河路25号4幢1-2层1号,四川省,成都市,成华区,金融保险服务;银行;中国工商银行
中国工商银行(东大支行),104.0744033,30.63567514,一环路南一段57号附1号,四川省,成都市,武侯区,金融保险服务;银行;中国工商银行|金融保险服务;自动提款机;中国工商银行ATM
中国工商银行(成都草市支行),104.0723705,30.67315751,草市街64号,四川省,成都市,青羊区,金融保险服务;银行;中国工商银行
中国工商银行(建设路支行),104.1052852,30.67133232,建设路1号附25号金域蓝湾楼下,四川省,成都市,成华区,金融保险服务;银行;中国工商银行
中国工商银行(成都双建路分理处),104.1115646,30.68140191,双建路83号,四川省,成都市,成华区,金融保险服务;银行;中国工商银行
中国工商银行(致顺路支行),104.1115318,30.70040956,致顺路555号,四川省,成都市,成华区,金融保险服务;银行;中国工商银行
中国工商银行(昭觉南路支行),104.1013328,30.71487466,昭觉寺南路276号(动物园地铁站B口旁),四川省,成都市,成华区,金融保险服务;银行;中国工商银行
中国工商银行成都静康路支行职工驿站,104.1124453,30.62048699,静康路190-206号,四川省,成都市,锦江区,金融保险服务;银行;中国工商银行
中国工商银行(德阳城南支行),104.3863274,31.11364289,珠江西路221号,四川省,德阳市,旌阳区,金融保险服务;银行;中国工商银行
中国工商银行(成都昭觉横街支行),104.1023955,30.70235086,昭觉横街99号,四川省,成都市,成华区,金融保险服务;银行;中国工商银行
中国工商银行(经天路支行),104.0994872,30.60387378,经天路4号附59号,四川省,成都市,锦江区,金融保险服务;银行;中国工商银行
中国工商银行(成都静康路支行),104.1125954,30.62034899,静沙南路与静康路辅路交叉口东南40米,四川省,成都市,锦江区,金融保险服务;银行;中国工商银行
中国工商银行(龙舟路支行),104.0959377,30.62758648,二环路东五段5号,四川省,成都市,锦江区,金融保险服务;银行;中国工商银行
中国工商银行(成都双荆路支行),104.0928749,30.70950907,双荆路111号中营购物广场1层,四川省,成都市,成华区,金融保险服务;银行;中国工商银行
中国工商银行(锦东路支行),104.1006418,30.64141805,锦东路568号摩根中心2号楼1层1号,四川省,成都市,锦江区,金融保险服务;银行;中国工商银行
中国工商银行(四川省分行),104.0732752,30.66032172,总府路35号总府大厦,四川省,成都市,锦江区,金融保险服务;银行;中国工商银行
中国工商银行(成都静安路支行),104.1106272,30.61738112,花园街37号,四川省,成都市,锦江区,金融保险服务;银行;中国工商银行
中国工商银行华润路支行成都,104.0899364,30.61566592,琉璃路512号514-516,四川省,成都市,锦江区,金融保险服务;银行;中国工商银行
中国工商银行(净居寺南街支行),104.1005155,30.62330739,净居寺南街56号附1-2号,四川省,成都市,锦江区,金融保险服务;银行;中国工商银行
中国工商银行(成都石油路支行),104.0916481,30.67674973,府青路一段19号附2-5,四川省,成都市,成华区,金融保险服务;银行;中国工商银行
中国工商银行(春熙路步行街支行),104.0751285,30.65805569,春熙路北段50号,四川省,成都市,锦江区,金融保险服务;银行;中国工商银行
中国工商银行(东大街支行),104.0798695,30.65084365,"东大街下东大街段216号花样年.喜年广场1栋1楼1,2号",四川省,成都市,锦江区,金融保险服务;银行;中国工商银行
中国工商银行(高车支行),104.095768,30.69212129,驷马桥三路299号,四川省,成都市,成华区,金融保险服务;银行;中国工商银行
中国工商银行(成都东风路支行),104.0893847,30.65299525,东风路北一巷11号附2号,四川省,成都市,成华区,金融保险服务;银行;中国工商银行
中国工商银行(成都八里庄支行),104.0962974,30.68357343,府青路二段18号院东南门旁,四川省,成都市,成华区,金融保险服务;银行;中国工商银行
中国工商银行(宏济新路支行),104.0922117,30.63994439,宏济新路世纪朝阳5栋底层营业房,四川省,成都市,锦江区,金融保险服务;银行;中国工商银行
中国工商银行(利民路支行),104.0795801,30.75792565,大丰街道利民路513、515、517、519号,四川省,成都市,新都区,金融保险服务;银行;中国工商银行
中国工商银行(中和支行),104.0916549,30.56087987,朝阳路254号(中和地铁站A口步行160米),四川省,成都市,双流区,金融保险服务;银行;中国工商银行
中国工商银行(外北支行),104.0817453,30.68619292,解放北路一段18号(梁家巷地铁站C1口步行340米),四川省,成都市,金牛区,金融保险服务;银行;中国工商银行
中国工商银行(成都晨辉路支行),104.0973646,30.61218771,晨辉路16号一栋1楼3-5号,四川省,成都市,锦江区,金融保险服务;银行;中国工商银行
中国工商银行(成都猛追湾支行),104.0889303,30.66285009,华星路2号大陆玉沙生活广场1层,四川省,成都市,锦江区,金融保险服务;银行;中国工商银行
中国工商银行(草市铁路支行),104.0727099,30.68930619,肖家村二巷75-81号,四川省,成都市,金牛区,金融保险服务;银行;中国工商银行
中国工商银行(红星中路支行),104.0852345,30.66837212,昭忠祠街72-12号(红星桥地铁站A口步行450米),四川省,成都市,锦江区,金融保险服务;银行;中国工商银行
中国工商银行(成都太升南路分理处),104.0756522,30.66821748,太升南路288号锦天国际C座F1层,四川省,成都市,青羊区,金融保险服务;银行;中国工商银行
中国工商银行(培根路支行),104.0856897,30.64004963,望江路1号1幢附2号,四川省,成都市,武侯区,金融保险服务;银行;中国工商银行
中国工商银行(和美路支行),104.0863866,30.5483943,新下街417号、中和二街1号,四川省,成都市,双流区,金融保险服务;银行;中国工商银行
中国工商银行(星辉中路支行),104.0817018,30.67487213,星辉中路1号附3-5号万宝大厦,四川省,成都市,金牛区,金融保险服务;银行;中国工商银行
中国工商银行(国际商贸城支行),104.0831582,30.79220587,聚霞路1号(北部商贸城地铁站B口步行450米),四川省,成都市,金牛区,金融保险服务;银行;中国工商银行
中国工商银行(游乐园分理处),104.0875537,30.67143798,建设北路一段76号通美大厦内,四川省,成都市,成华区,金融保险服务;银行;中国工商银行
中国工商银行(万东路支行),104.0835995,30.49111046,滨江栖棠附近,四川省,成都市,双流区,金融保险服务;银行;中国工商银行
中国工商银行(九眼桥支行),104.0768611,30.62446325,科华街1号附3号,四川省,成都市,武侯区,金融保险服务;银行;中国工商银行
中国工商银行(科华南路支行),104.0747354,30.6102456,科华南路3号附20号,四川省,成都市,武侯区,金融保险服务;银行;中国工商银行
中国工商银行(射洪营业室),105.3838338,30.8702137,新阳街205号,四川省,遂宁市,射洪市,金融保险服务;银行;中国工商银行
中国工商银行(子昂广场支行),105.3699416,30.85882221,太和街道子昂广场子昂金都1幢11单元1层,四川省,遂宁市,射洪市,金融保险服务;银行;中国工商银行
中国工商银行,104.0899191,30.64650735,一环路东五段103号(牛王庙地铁站E口步行130米),四川省,成都市,锦江区,金融保险服务;银行;中国工商银行
中国工商银行(成都应龙路支行),104.0783979,30.53484186,应龙路77号6栋1层1-2号,四川省,成都市,双流区,金融保险服务;银行;中国工商银行
中国工商银行(滨江东路支行),104.0775994,30.64581283,滨江东路158号之附7号-附8号,四川省,成都市,锦江区,金融保险服务;银行;中国工商银行
成都市高速公路ETC安装点(工行芷泉支行),104.0897861,30.64629636,一环路东五段103号(牛王庙地铁站A口步行180米),四川省,成都市,锦江区,金融保险服务;银行;中国工商银行|生活服务;生活服务场所;生活服务场所
中国工商银行,104.1651174,30.83382618,,四川省,成都市,新都区,金融保险服务;银行;中国工商银行
中国工商银行(成都簸箕街支行),104.0763959,30.67826027,解放路二段4号附1号,四川省,成都市,金牛区,金融保险服务;银行;中国工商银行
中国工商银行(太和大道支行),105.3781983,30.86425692,诚信花园射中小区太和大道1-3号,四川省,遂宁市,射洪市,金融保险服务;银行;中国工商银行
中国工商银行(成都棕北支行),104.0730565,30.62608637,科华北路58号亚太广场F1层,四川省,成都市,武侯区,金融保险服务;银行;中国工商银行
中国工商银行(射洪武安河支行),105.384571,30.86004978,金宸街328号,四川省,遂宁市,射洪市,金融保险服务;银行;中国工商银行
中国工商银行(新泽三路支行),104.0827591,30.52274891,新泽三路,四川省,成都市,双流区,金融保险服务;银行;中国工商银行
中国工商银行,104.0846591,30.676155,恒大曹家巷广场西区东北门西北70米,四川省,成都市,金牛区,金融保险服务;银行;中国工商银行
中国工商银行(西部鞋都支行),104.0756951,30.69475498,北站东二路54号怡东商城,四川省,成都市,金牛区,金融保险服务;银行;中国工商银行
中国工商银行(四川大学支行),104.0761376,30.63367211,一环路南一段24号四川大学西区行政楼一楼,四川省,成都市,武侯区,金融保险服务;银行;中国工商银行
中国工商银行(成都北星大道支行),104.0776813,30.82018754,北星大道二段877号1栋1层129号,四川省,成都市,新都区,金融保险服务;银行;中国工商银行
成都市高速公路ETC安装点(工行草市支行),104.0724485,30.67312951,草市街64号,四川省,成都市,青羊区,金融保险服务;银行;中国工商银行|生活服务;生活服务场所;生活服务场所
中国工商银行(成都商务区支行),104.0770687,30.43434375,宁波路377号中铁·卓越中心F1层,四川省,成都市,双流区,金融保险服务;银行;中国工商银行
中国工商银行,105.3883694,30.88353444,太空路(风尚名城),四川省,遂宁市,射洪市,金融保险服务;银行;中国工商银行
中国工商银行,104.107582,30.65806848,新华社区南区北门东130米,四川省,成都市,成华区,金融保险服务;银行;中国工商银行
中国工商银行成都市高速公路etc105安装点,104.1014987,30.64743191,蜀都大道水碾河路与双桥路南三街交叉口西北80米,四川省,成都市,成华区,金融保险服务;银行;中国工商银行|生活服务;生活服务场所;生活服务场所
中国工商银行-社保卡受理点,104.0725225,30.64875996,王家坝街25号建银大厦F1层,四川省,成都市,锦江区,金融保险服务;银行;中国工商银行
中国工商银行(达州凤凰支行)(装修中),107.4633351,31.22211678,龙泉路95号附近,四川省,达州市,通川区,金融保险服务;银行;中国工商银行
中国工商银行达州莲湖支行,107.4602214,31.23507684,莲湖新区红星路红星国际广场一期14号楼27-30号,四川省,达州市,通川区,金融保险服务;银行;中国工商银行
中国工商银行(达州海棠湾支行),107.4696281,31.20570463,金兰路海棠新村6号,四川省,达州市,通川区,金融保险服务;银行;中国工商银行
中国工商银行(金龙支行),107.4611923,31.20534593,西外镇金龙大道175号,四川省,达州市,通川区,金融保险服务;银行;中国工商银行
中国工商银行(红旗路支行),107.4932343,31.21628773,红旗路122号,四川省,达州市,通川区,金融保险服务;银行;中国工商银行
中国工商银行,107.4963077,31.21315163,大北街与荷叶街交叉口北40米,四川省,达州市,通川区,金融保险服务;银行;中国工商银行
中国工商银行(达州火车站支行),107.4540342,31.19945222,朝阳西路707-709号,四川省,达州市,通川区,金融保险服务;银行;中国工商银行
中国工商银行(通川支行),107.5001555,31.21432448,来凤路8号,四川省,达州市,通川区,金融保险服务;银行;中国工商银行
中国工商银行(达州凤翎关支行),107.5053357,31.21924827,通川北路162-164号,四川省,达州市,通川区,金融保险服务;银行;中国工商银行
中国工商银行(达州分行营业室),107.5020233,31.20065347,达川大道一段2号,四川省,达州市,达川区,金融保险服务;银行;中国工商银行
中国工商银行(三里坪支行),107.5101417,31.20371516,绥定大道一段260号,四川省,达州市,达川区,金融保险服务;银行;中国工商银行
中国工商银行,107.47527,31.17623055,创兴大道阳光·熙云湖11-1-1-14至11-1-1-16门市,四川省,达州市,达川区,金融保险服务;银行;中国工商银行
中国工商银行(达州达川支行),107.5119964,31.19117915,南外镇兴盛街涛源国际1幢1层1单元2号,四川省,达州市,达川区,金融保险服务;银行;中国工商银行
中国工商银行(南国大道支行),107.5134392,31.18470912,南国大道二段823、825、827、829、833、931号,四川省,达州市,达川区,金融保险服务;银行;中国工商银行
中国工商银行(宣汉城西支行),107.7036472,31.35491719,金鼓广场1号门旁,四川省,达州市,宣汉县,金融保险服务;银行;中国工商银行
中国工商银行(宣汉支行),107.7223036,31.35627246,东乡镇排立湾路68号(近富苑大酒店),四川省,达州市,宣汉县,金融保险服务;银行;中国工商银行
中国工商银行(宣汉衙门口支行),107.7239927,31.3547534,东乡镇后街1、3、5、7号,四川省,达州市,宣汉县,金融保险服务;银行;中国工商银行
中国工商银行(开江支行),107.8575534,31.08822119,,四川省,达州市,开江县,金融保险服务;银行;中国工商银行
中国工商银行,107.8644528,31.08375792,淙桥街与淙城街交叉口东南20米,四川省,达州市,开江县,金融保险服务;银行;中国工商银行
中国工商银行(南坝支行),108.0084506,31.36285183,田坝街79附近,四川省,达州市,宣汉县,金融保险服务;银行;中国工商银行
中国工商银行(临巴镇营业所),107.0585187,30.89366892,临巴镇临华路140号,四川省,达州市,渠县,金融保险服务;银行;中国工商银行
中国工商银行(渠县支行),106.970437,30.83947498,渠江街道八一街75号,四川省,达州市,渠县,金融保险服务;银行;中国工商银行
中国工商银行(东城支行),106.9815919,30.83968161,五井路西段,四川省,达州市,渠县,金融保险服务;银行;中国工商银行
中国工商银行(南门储蓄所),106.9683455,30.83598206,渠江街道后溪街2号,四川省,达州市,渠县,金融保险服务;银行;中国工商银行
中国工商银行,106.9646788,30.83405418,万宾苑2号门旁,四川省,达州市,渠县,金融保险服务;银行;中国工商银行
中国工商银行(营山支行营业室),106.559489,31.08002276,朗池街道新北路68号,四川省,南充市,营山县,金融保险服务;银行;中国工商银行
中国工商银行(营山三星支行),106.5713047,31.07454344,城南镇三星中路三星锦城小区3幢1层8、9、10、11号,四川省,南充市,营山县,金融保险服务;银行;中国工商银行
中国工商银行,106.5733257,31.08236634,复兴一街与世友街交叉口西南80米,四川省,南充市,营山县,金融保险服务;银行;中国工商银行
中国工商银行(营山正东街支行),106.5653863,31.0774696,朗池街道正东街72号营山地税局直属所对面,四川省,南充市,营山县,金融保险服务;银行;中国工商银行
中国工商银行(罗江支行),104.5044061,31.30580204,"纹江东路42,44,46号",四川省,德阳市,罗江区,金融保险服务;银行;中国工商银行
中国工商银行(德阳天府数谷支行),104.4107664,31.15938035,一环路99号,四川省,德阳市,旌阳区,金融保险服务;银行;中国工商银行
中国工商银行(德阳黄河支行),104.406977,31.1454827,兴河街11号(近百斯特酒店),四川省,德阳市,旌阳区,金融保险服务;银行;中国工商银行
中国工商银行(德阳玉泉支行),104.4099058,31.13687476,玉泉路294、296、298号(近庐山家园),四川省,德阳市,旌阳区,金融保险服务;银行;中国工商银行
中国工商银行(德阳城北支行),104.3910317,31.14721716,黄河西路169号,四川省,德阳市,旌阳区,金融保险服务;银行;中国工商银行
中国工商银行(德阳分行),104.4002062,31.1345311,东湖街道凯江路一段31号(近工行),四川省,德阳市,旌阳区,金融保险服务;银行;中国工商银行|金融保险服务;银行相关;银行相关
中国工商银行(德阳钟鼓楼支行),104.3888813,31.13427845,南街5号(近新华书店),四川省,德阳市,旌阳区,金融保险服务;银行;中国工商银行
中国工商银行(德阳东大街支行),104.392244,31.12713847,泰山南路一段1号,四川省,德阳市,旌阳区,金融保险服务;银行;中国工商银行
中国工商银行(德阳庐山支行),104.4070549,31.11505422,庐山南路二段158号(近人和中天),四川省,德阳市,旌阳区,金融保险服务;银行;中国工商银行
中国工商银行(德阳西干道支行)(装修中),104.3805729,31.13092877,长江西路华山北路交汇处华山广场C栋1-12号,四川省,德阳市,旌阳区,金融保险服务;银行;中国工商银行
中国工商银行(岷江西路分理处),104.3844157,31.12286779,岷江西路一段571-573号,四川省,德阳市,旌阳区,金融保险服务;银行;中国工商银行
中国工商银行(德阳蒙山街支行),104.394752,31.1152626,沙河街116号,四川省,德阳市,旌阳区,金融保险服务;银行;中国工商银行
中国工商银行(高新支行),104.6757071,31.46981749,火炬北路28号,四川省,绵阳市,涪城区,金融保险服务;银行;中国工商银行
中国工商银行(绵阳安州界牌支行),104.5913977,31.49325141,界牌镇辽宁大道11号,四川省,绵阳市,安州区,金融保险服务;银行;中国工商银行
中国工商银行(绵阳石桥新城支行),104.6966223,31.45149621,石桥铺飞云大道19号繁花似锦4期90栋53-57,四川省,绵阳市,涪城区,金融保险服务;银行;中国工商银行
中国工商银行(绵阳火炬支行),104.6836374,31.46960927,普明南路8号杨波综合楼9-10号,四川省,绵阳市,涪城区,金融保险服务;银行;中国工商银行
中国工商银行(荷花支行),104.7071982,31.45766682,临园路西段82号花园商城,四川省,绵阳市,涪城区,金融保险服务;银行;中国工商银行
中国工商银行,104.207008,31.33270248,南京大道二段与玉妃路二段交叉口西北20米,四川省,德阳市,绵竹市,金融保险服务;银行;中国工商银行
中国工商银行(绵竹支行),104.200141,31.34063055,剑南街道回澜街144-146号(近回澜大道),四川省,德阳市,绵竹市,金融保险服务;银行;中国工商银行
中国工商银行(绵阳花园支行),104.7214006,31.4600854,临园路西段附9-5号,四川省,绵阳市,涪城区,金融保险服务;银行;中国工商银行
中国工商银行(绵阳涪城支行),104.7523849,31.45860659,红星街30-1,四川省,绵阳市,涪城区,金融保险服务;银行;中国工商银行
中国工商银行(新华支行),104.7404392,31.46242585,富乐路17-14号,四川省,绵阳市,涪城区,金融保险服务;银行;中国工商银行
中国工商银行(绵阳经开区支行),104.7730551,31.44008332,红塔街15号金海南城首座阳光里15栋,四川省,绵阳市,涪城区,金融保险服务;银行;中国工商银行
中国工商银行(绵阳科技城新区支行),104.7076592,31.48533037,科技城新区玉泉北街77号,四川省,绵阳市,涪城区,金融保险服务;银行;中国工商银行
中国工商银行(绵阳南桥支行),104.7518735,31.45064773,红星街116-1号,四川省,绵阳市,涪城区,金融保险服务;银行;中国工商银行
中国工商银行(绵阳分行),104.7486057,31.45941567,警钟街10号,四川省,绵阳市,涪城区,金融保险服务;银行;中国工商银行
中国工商银行(绵阳临园支行),104.7412331,31.46437779,临园路东段70之1-4,四川省,绵阳市,涪城区,金融保险服务;银行;中国工商银行
中国工商银行(绵竹广场支行),104.1915812,31.34328176,剑南街道春溢路6-10号,四川省,德阳市,绵竹市,金融保险服务;银行;中国工商银行
中国工商银行(安州区支行),104.5627177,31.53317751,辽安路,四川省,绵阳市,安州区,金融保险服务;银行;中国工商银行
中国工商银行(绵阳金柱园支行),104.7355756,31.4672289,长虹大道中段110号崇尚国际商业中心F1层,四川省,绵阳市,涪城区,金融保险服务;银行;中国工商银行
中国工商银行(文星阁支行),104.5589643,31.53639856,银河大道东段,四川省,绵阳市,安州区,金融保险服务;银行;中国工商银行
中国工商银行(绵阳富乐路支行),104.7412878,31.46825873,剑南路西段27号之1-7号,四川省,绵阳市,涪城区,金融保险服务;银行;中国工商银行
中国工商银行(绵阳南河支行),104.7572965,31.45301654,一环路南段212-18号,四川省,绵阳市,涪城区,金融保险服务;银行;中国工商银行
中国工商银行24小时自助银行(长虹国际广场),104.7393297,31.46877978,跃进路4号长虹国际广场F1层,四川省,绵阳市,涪城区,金融保险服务;银行;中国工商银行|金融保险服务;自动提款机;中国工商银行ATM
中国工商银行(绵阳游仙支行),104.768738,31.46562003,东津路18号(游仙区政府对面),四川省,绵阳市,游仙区,金融保险服务;银行;中国工商银行
中国工商银行(金河南路支行),104.1790468,31.1254243,蓥华山路北段与金河南路交叉口西北,四川省,德阳市,什邡市,金融保险服务;银行;中国工商银行
中国工商银行(绵阳西山支行),104.7344386,31.47975473,长虹大道中段33之1-4号,四川省,绵阳市,涪城区,金融保险服务;银行;中国工商银行
中国工商银行(塔九路),104.5496905,31.54221471,益昌路西段与好医生大道中段交叉口东20米,四川省,绵阳市,安州区,金融保险服务;银行;中国工商银行
中国工商银行(绵阳跃进路支行),104.7410391,31.47748359,涪跃进路1958三期20栋,四川省,绵阳市,涪城区,金融保险服务;银行;中国工商银行
中国工商银行(绵阳开元支行),104.7585523,31.47011124,剑南路东段160之9-12,四川省,绵阳市,游仙区,金融保险服务;银行;中国工商银行
中国工商银行(什邡市支行营业室),104.1656315,31.12569273,蓥峰北路73号(互动体育对面),四川省,德阳市,什邡市,金融保险服务;银行;中国工商银行
中国工商银行(德阳什邡竹园支行),104.170054,31.12445661,通站东路93号,四川省,德阳市,什邡市,金融保险服务;银行;中国工商银行
中国工商银行(长虹世纪城支行),104.7388588,31.4929574,长虹世纪城二期长虹大道北段66-16,四川省,绵阳市,涪城区,金融保险服务;银行;中国工商银行
中国工商银行(绵阳城北支行),104.7354052,31.49965539,跃进路北段101号,四川省,绵阳市,涪城区,金融保险服务;银行;中国工商银行
中国工商银行(科学城支行第一分理处),104.755265,31.4845801,绵山路64号,四川省,绵阳市,游仙区,金融保险服务;银行;中国工商银行
中国工商银行,104.8827872,31.2684919,潼绵干道昌德商业城楼下,四川省,绵阳市,三台县,金融保险服务;银行;中国工商银行
中国工商银行(绵阳城东支行),104.7682005,31.48460075,一环路东段235-8号,四川省,绵阳市,游仙区,金融保险服务;银行;中国工商银行
中国工商银行(绵阳科学城支行营业室),104.7490762,31.50529293,中绵路科学城街道五区北(近科学城花园),四川省,绵阳市,游仙区,金融保险服务;银行;中国工商银行
中国工商银行(九区储蓄所),104.7564834,31.50608472,绵山路64号九区(中国建设银行东侧),四川省,绵阳市,游仙区,金融保险服务;银行;中国工商银行
中国工商银行(科学城第八分理处),104.7472007,31.51080489,绵山路科学城三区九龙广场6-1-101号,四川省,绵阳市,游仙区,金融保险服务;银行;中国工商银行
中国工商银行,104.7326509,31.51526321,科学城七区会所西北侧,四川省,绵阳市,游仙区,金融保险服务;银行;中国工商银行
中国工商银行(仙人路分行),104.7806354,31.49137831,仙人路32号(近绵阳职业技术学院大门),四川省,绵阳市,游仙区,金融保险服务;银行;中国工商银行
中国工商银行(绵阳仙海区支行),104.8525842,31.5367777,仙山路26-2号,四川省,绵阳市,游仙区,金融保险服务;银行;中国工商银行
中国工商银行(盐亭支行),105.3867421,31.22196987,凤灵街道电子金融街48号,四川省,绵阳市,盐亭县,金融保险服务;银行;中国工商银行
中国工商银行(甘孜州分行),101.9556325,30.04432955,向阳街358号,四川省,甘孜藏族自治州,康定市,金融保险服务;银行;中国工商银行
中国工商银行(泸定支行),102.2304447,29.91431223,泸桥镇红军路272、274、276、278号,四川省,甘孜藏族自治州,泸定县,金融保险服务;银行;中国工商银行
中国工商银行(广安前锋支行),106.8856174,30.49460833,广前大道与中兴街交叉汇处,四川省,广安市,前锋区,金融保险服务;银行;中国工商银行
中国工商银行(钢铁桥支行)(装修中),106.7775781,30.38523197,滨河东路472-480号,四川省,广安市,华蓥市,金融保险服务;银行;中国工商银行
中国工商银行(华蓥支行营业室),106.77534,30.37979504,滨河东路70-74号,四川省,广安市,华蓥市,金融保险服务;银行;中国工商银行
中国工商银行(邻水支行营业室),106.9299848,30.3321018,乌龟碑街16号,四川省,广安市,邻水县,金融保险服务;银行;中国工商银行
中国工商银行(邻水恒源支行),106.9377156,30.33362654,万泰翡翠城2期西门北70米,四川省,广安市,邻水县,金融保险服务;银行;中国工商银行
中国工商银行(华蓥明光路支行),106.7717503,30.37200016,明光三路164-172号,四川省,广安市,华蓥市,金融保险服务;银行;中国工商银行
中国工商银行(广安城北支行),106.6426859,30.47927431,渠江北路17号,四川省,广安市,广安区,金融保险服务;银行;中国工商银行
中国工商银行(洪州大道支行),106.6391324,30.48270742,洪州大道西段1-2号,四川省,广安市,广安区,金融保险服务;银行;中国工商银行
中国工商银行(广安分行),106.6365331,30.45341154,金安大道二段1号,四川省,广安市,广安区,金融保险服务;银行;中国工商银行
中国工商银行(广安城南支行),106.629238,30.45940477,金安大道一段79-81号,四川省,广安市,广安区,金融保险服务;银行;中国工商银行
中国工商银行(广安西溪支行),106.6260466,30.46209587,金安大道上段16-22号,四川省,广安市,广安区,金融保险服务;银行;中国工商银行
中国工商银行(建安南路分理处),106.6272192,30.45203484,建安南路229-235号(近广安日报社),四川省,广安市,广安区,金融保险服务;银行;中国工商银行
工商银行城南支行工行驿站,106.629229,30.45940177,金安大道一段79号,四川省,广安市,广安区,金融保险服务;银行;中国工商银行
中国工商银行,106.6184533,30.46382011,华都花园B区南门西北110米,四川省,广安市,广安区,金融保险服务;银行;中国工商银行
中国工商银行(大竹支行),107.2037071,30.73676631,一环路东段20号,四川省,达州市,大竹县,金融保险服务;银行;中国工商银行
中国工商银行(大竹金利多支行),107.2104795,30.73349408,东大街东段205号,四川省,达州市,大竹县,金融保险服务;银行;中国工商银行
中国工商银行(大竹竹海路支行),107.200413,30.74428441,竹海路西段427-429号,四川省,达州市,大竹县,金融保险服务;银行;中国工商银行
中国工商银行(大竹车坝支行),107.2153605,30.7403329,竹海路东段892号,四川省,达州市,大竹县,金融保险服务;银行;中国工商银行
中国工商银行(大竹北城新区支行),107.2015028,30.75197837,体育大道150号,四川省,达州市,大竹县,金融保险服务;银行;中国工商银行
中国工商银行(岳池翔凤大道支行),106.4558019,30.54084012,九龙街道翔凤大道下段5号,四川省,广安市,岳池县,金融保险服务;银行;中国工商银行
中国工商银行(丝绸路支行),106.4487447,30.52871637,津典时代北门东110米,四川省,广安市,岳池县,金融保险服务;银行;中国工商银行
中国工商银行,106.4436653,30.5374075,九龙大街143号,四川省,广安市,岳池县,金融保险服务;银行;中国工商银行
中国工商银行(岳池支行营业室),106.4376561,30.53862269,九龙街道大东街11号,四川省,广安市,岳池县,金融保险服务;银行;中国工商银行
中国工商银行,106.437395,30.5387287,九龙镇南外街55号,四川省,广安市,岳池县,金融保险服务;银行;中国工商银行
中国工商银行(十字街分理处),106.2885347,30.34337885,沿口镇建设南路56号(近中医院),四川省,广安市,武胜县,金融保险服务;银行;中国工商银行
中国工商银行(武胜支行营业室),106.2782033,30.33845219,兴武大道405-415号,四川省,广安市,武胜县,金融保险服务;银行;中国工商银行
中国工商银行(人民南路支行)(装修中),106.2909063,30.34650777,沿口镇人民南路14号,四川省,广安市,武胜县,金融保险服务;银行;中国工商银行
中国工商银行(高坪支行),106.1053373,30.78347368,鹤鸣路165号,四川省,南充市,高坪区,金融保险服务;银行;中国工商银行
中国工商银行(南充分行),106.070522,30.79723562,丝绸路86号,四川省,南充市,顺庆区,金融保险服务;银行;中国工商银行
中国工商银行(南充江东大道支行),106.117331,30.79395627,江东中路七段100号紫薇花园1幢1102-2号至1102-7号,四川省,南充市,高坪区,金融保险服务;银行;中国工商银行
中国工商银行(阳春路支行),106.1145876,30.78221242,高坪镇阳春路43-47号,四川省,南充市,高坪区,金融保险服务;银行;中国工商银行
中国工商银行(高都路支行),106.0985861,30.76924696,高都路二段95、97号,四川省,南充市,高坪区,金融保险服务;银行;中国工商银行
中国工商银行(人民广场支行),106.1054696,30.83363939,,四川省,南充市,顺庆区,金融保险服务;银行;中国工商银行
中国工商银行(石油南路支行),106.1039312,30.81351755,石油南路150号,四川省,南充市,顺庆区,金融保险服务;银行;中国工商银行
中国工商银行(南充嘉南支行),106.0623081,30.75154612,南虹路二段114号,四川省,南充市,嘉陵区,金融保险服务;银行;中国工商银行
中国工商银行(南充城南支行),106.0795355,30.7720145,文峰街明宇帝壹家89、91、93、95号,四川省,南充市,顺庆区,金融保险服务;银行;中国工商银行
中国工商银行(南充顺庆支行),106.0885972,30.79751309,果城路5-7号,四川省,南充市,顺庆区,金融保险服务;银行;中国工商银行
中国工商银行(南充西区支行),106.0762177,30.81545334,白土坝路308号,四川省,南充市,顺庆区,金融保险服务;银行;中国工商银行
中国工商银行(南充南湖支行),106.0482272,30.74202159,春江路二段与嘉南路五段交叉口东80米,四川省,南充市,嘉陵区,金融保险服务;银行;中国工商银行
中国工商银行(南充茧市街支行),106.082929,30.79087129,人民南路4号,四川省,南充市,顺庆区,金融保险服务;银行;中国工商银行
中国工商银行(火车站分理处),106.0822319,30.80649922,铁昌路13号火车站广场斜对面,四川省,南充市,顺庆区,金融保险服务;银行;中国工商银行
中国工商银行(解放街支行),106.0861821,30.78321624,府街公寓东南门旁,四川省,南充市,顺庆区,金融保险服务;银行;中国工商银行
中国工商银行(果城支行),106.0755884,30.84726317,潆华北路二段179号,四川省,南充市,顺庆区,金融保险服务;银行;中国工商银行
中国工商银行(峨眉山东湖支行),103.5026906,29.60119351,"范河二127号、129号,范河一157号、159号、161号",四川省,乐山市,峨眉山市,金融保险服务;银行;中国工商银行
中国工商银行(峨眉山红华苑支行),103.4932834,29.6066609,绥山镇红华苑小区B16-1号,四川省,乐山市,峨眉山市,金融保险服务;银行;中国工商银行
中国工商银行(峨眉山支行),103.4899817,29.59350438,大佛南路115号,四川省,乐山市,峨眉山市,金融保险服务;银行;中国工商银行
中国工商银行(燕岗支行),103.5213963,29.54881868,棬鱼路与前进北路交叉口东40米,四川省,乐山市,峨眉山市,金融保险服务;银行;中国工商银行
中国工商银行(峨眉山名山路支行),103.4816669,29.5997337,名山中路33-49号荣兴名山购物广场,四川省,乐山市,峨眉山市,金融保险服务;银行;中国工商银行
中国工商银行(夹江广场支行),103.5753588,29.73365563,漹城镇王水井街365号,四川省,乐山市,夹江县,金融保险服务;银行;中国工商银行
中国工商银行(东大街支行),103.5699213,29.74035577,漹城镇东大街195号,四川省,乐山市,夹江县,金融保险服务;银行;中国工商银行
中国工商银行(夹江支行营业室),103.575127,29.74408441,焉城镇建设北路126号(近虹桥宾馆),四川省,乐山市,夹江县,金融保险服务;银行;中国工商银行
中国工商银行(乐山凤洲路支行),103.7221963,29.60397779,凤洲路1797-1801号,四川省,乐山市,市中区,金融保险服务;银行;中国工商银行
中国工商银行(乐山青江分理处),103.7349033,29.61251496,乐青路1号,四川省,乐山市,市中区,金融保险服务;银行;中国工商银行
中国工商银行(乐山嘉州支行),103.7286669,29.5574914,肖坝路756号嘉州新城生活广场F1层,四川省,乐山市,市中区,金融保险服务;银行;中国工商银行
中国工商银行(凤凰路支行),103.7445091,29.59016192,凤凰路中段号(近华联商厦),四川省,乐山市,市中区,金融保险服务;银行;中国工商银行
中国工商银行(天星路支行),103.7513243,29.59400649,天星路643、645号(电信花园旁),四川省,乐山市,市中区,金融保险服务;银行;中国工商银行
中国工商银行(滨江支行),103.7524516,29.60012531,银湾街128号,四川省,乐山市,市中区,金融保险服务;银行;中国工商银行
中国工商银行(春华路支行),103.757232,29.58659733,春华路南段422号,四川省,乐山市,市中区,金融保险服务;银行;中国工商银行
中国工商银行(柏杨路支行),103.7548923,29.58289253,柏杨东路295、297、299号(三江名都楼下、税务局对面),四川省,乐山市,市中区,金融保险服务;银行;中国工商银行
中国工商银行(沙湾支行),103.5455801,29.4171643,沫若大道南段96、98、100、102号(沙湾镇政府对面),四川省,乐山市,沙湾区,金融保险服务;银行;中国工商银行
中国工商银行(翡翠支行),103.7653236,29.59937766,翡翠路166号,四川省,乐山市,市中区,金融保险服务;银行;中国工商银行
中国工商银行(乐山分行),103.7642931,29.56072349,紫云后街10号(川兴融智能酒店对面),四川省,乐山市,市中区,金融保险服务;银行;中国工商银行
中国工商银行(土桥街支行),103.7626286,29.55606467,中土桥街40号,四川省,乐山市,市中区,金融保险服务;银行;中国工商银行
中国工商银行(五通桥支行),103.8095802,29.40552217,茶花路160-1号,四川省,乐山市,五通桥区,金融保险服务;银行;中国工商银行
中国工商银行(双江路分理处),103.8131414,29.40854492,竹根镇双江路198号,四川省,乐山市,五通桥区,金融保险服务;银行;中国工商银行
中国工商银行(五通桥文化街分理处),103.8185621,29.40345873,竹根镇文化路986号,四川省,乐山市,五通桥区,金融保险服务;银行;中国工商银行
中国工商银行(洪雅支行),103.3705974,29.90567137,洪川镇洪川镇文化街1号(近人民政府),四川省,眉山市,洪雅县,金融保险服务;银行;中国工商银行
中国工商银行(青神支行),103.8439469,29.83116421,青竹街道大南街39号,四川省,眉山市,青神县,金融保险服务;银行;中国工商银行
中国工商银行(中正街),103.3695348,29.90112654,洪川镇中正街16号,四川省,眉山市,洪雅县,金融保险服务;银行;中国工商银行
中国工商银行(洪雅广场支行),103.363924,29.90388677,洪川镇禾森大道39号附41-47号,四川省,眉山市,洪雅县,金融保险服务;银行;中国工商银行
中国工商银行(丹棱支行),103.5104355,30.01346558,丹棱镇小南街19号,四川省,眉山市,丹棱县,金融保险服务;银行;中国工商银行
中国工商银行(井研支行),104.063613,29.63674533,幸福大道1号(公安局旁),四川省,乐山市,井研县,金融保险服务;银行;中国工商银行
中国工商银行(峨边支行),103.2579523,29.23128385,沙坪镇县街10号,四川省,乐山市,峨边彝族自治县,金融保险服务;银行;中国工商银行
中国工商银行(眉山岷江支行),103.8447156,30.04118405,湖滨路南四段与二环东路交叉口东北40米,四川省,眉山市,东坡区,金融保险服务;银行;中国工商银行
中国工商银行(犍为县支行),103.94229,29.20672677,玉津镇凤凰路北段958号,四川省,乐山市,犍为县,金融保险服务;银行;中国工商银行
中国工商银行(犍为新城支行),103.9500107,29.19917549,玉津镇罗城路143号,四川省,乐山市,犍为县,金融保险服务;银行;中国工商银行
中国工商银行(金口河支行),103.0743294,29.2446833,和平滨河路三段33号,四川省,乐山市,金口河区,金融保险服务;银行;中国工商银行
中国工商银行(熊猫大道支行),103.0414343,30.01109765,熊猫大道与正和路交叉口北40米,四川省,雅安市,雨城区,金融保险服务;银行;中国工商银行
中国工商银行(羌江南路支行),103.0062311,29.98312247,羌江南路育才路97号口,四川省,雅安市,雨城区,金融保险服务;银行;中国工商银行
中国工商银行(雅安中大街支行),102.9943315,29.98708604,中大街106号,四川省,雅安市,雨城区,金融保险服务;银行;中国工商银行
中国工商银行(雅安分行),103.0003017,29.98375279,东大街13号临江大厦F1层,四川省,雅安市,雨城区,金融保险服务;银行;中国工商银行
中国工商银行(河北街支行),103.0028735,29.99058245,挺进路147号,四川省,雅安市,雨城区,金融保险服务;银行;中国工商银行
中国工商银行(仁寿支行),104.1441391,29.99568168,阳光路149-153号,四川省,眉山市,仁寿县,金融保险服务;银行;中国工商银行
中国工商银行(雅安上坝路支行),103.0098153,29.98035234,雅安市教育科学研究所南门旁,四川省,雅安市,雨城区,金融保险服务;银行;中国工商银行
中国工商银行(荥经支行),102.8444964,29.79801674,荥兴路东二段11号,四川省,雅安市,荥经县,金融保险服务;银行;中国工商银行
中国工商银行(仁寿城中支行),104.1603097,30.00696381,文锦街72号,四川省,眉山市,仁寿县,金融保险服务;银行;中国工商银行
中国工商银行(西门北路支行),102.9891207,29.99905199,康藏路477号,四川省,雅安市,雨城区,金融保险服务;银行;中国工商银行|金融保险服务;自动提款机;中国工商银行ATM
中国工商银行(文林分理处),104.1355835,29.99415807,文林街道奎星街130号,四川省,眉山市,仁寿县,金融保险服务;银行;中国工商银行
中国工商银行(仁寿大道支行),104.1752155,30.00855815,湖滨北路与仁寿大道二段辅路交叉口南60米,四川省,眉山市,仁寿县,金融保险服务;银行;中国工商银行
中国工商银行(仁寿富加支行),104.2947308,29.92900038,香炉街126号,四川省,眉山市,仁寿县,金融保险服务;银行;中国工商银行
中国工商银行(荣县荣州大道支行),104.4080055,29.45105813,旭阳镇望景路268-272号,四川省,自贡市,荣县,金融保险服务;银行;中国工商银行
中国工商银行(荣县支行),104.4114357,29.44578705,旭阳镇金碧城步行街3-5号,四川省,自贡市,荣县,金融保险服务;银行;中国工商银行
中国工商银行(荣县西街支行),104.4166139,29.45695567,旭阳镇西街191号,四川省,自贡市,荣县,金融保险服务;银行;中国工商银行
中国工商银行(汉源支行九襄分理处),102.6214911,29.49702234,九襄镇东风路三段24号,四川省,雅安市,汉源县,金融保险服务;银行;中国工商银行
中国工商银行(川威支行),104.488356,29.732575,连界镇人民路步行街1-5号(近威远县连界镇人民路步行街),四川省,内江市,威远县,金融保险服务;银行;中国工商银行
中国工商银行(汉源支行),102.6341086,29.34980942,江汉大道二段43号,四川省,雅安市,汉源县,金融保险服务;银行;中国工商银行
中国工商银行(长安西路分理处),102.2341376,27.88840997,凯乐路91号(华西医院楼下),四川省,凉山彝族自治州,西昌市,金融保险服务;银行;中国工商银行
中国工商银行(凉山分行碧府路支行),102.2434777,27.87902839,西郊乡北碧府路昌平建材市场门市15号,四川省,凉山彝族自治州,西昌市,金融保险服务;银行;中国工商银行
中国工商银行(航天城支行),102.2571285,27.88973955,长安东路6号,四川省,凉山彝族自治州,西昌市,金融保险服务;银行;中国工商银行
中国工商银行(凉山彝族自治州商业街支行),102.2606313,27.89134512,商业街一段30号,四川省,凉山彝族自治州,西昌市,金融保险服务;银行;中国工商银行
中国工商银行(凉山分行),102.2544378,27.87677436,航天大道三段52号,四川省,凉山彝族自治州,西昌市,金融保险服务;银行;中国工商银行
中国工商银行(三岔口分理处),102.2625306,27.88188432,三岔口南路88号,四川省,凉山彝族自治州,西昌市,金融保险服务;银行;中国工商银行
中国工商银行(城南支行),102.252937,27.86987979,春城西路87号,四川省,凉山彝族自治州,西昌市,金融保险服务;银行;中国工商银行
中国工商银行,102.2687743,27.87328802,井泉路126号,四川省,凉山彝族自治州,西昌市,金融保险服务;银行;中国工商银行
中国工商银行(马道分理处),102.2112982,27.8391244,马道街道马道南30号,四川省,凉山彝族自治州,西昌市,金融保险服务;银行;中国工商银行
中国工商银行,103.2454023,27.69642274,下南街17号,四川省,凉山彝族自治州,金阳县,金融保险服务;银行;中国工商银行
中国工商银行(泸州合江支行),105.8163196,28.82232621,少岷北路431号,四川省,泸州市,合江县,金融保险服务;银行;中国工商银行
中国工商银行(合江少岷路支行),105.8294982,28.81236362,合江镇少岷南路318号,四川省,泸州市,合江县,金融保险服务;银行;中国工商银行
中国工商银行(泸州高新支行),105.5102126,28.86224741,泰安镇酒谷大道四段9号,四川省,泸州市,江阳区,金融保险服务;银行;中国工商银行
中国工商银行(泸州高坝支行),105.5012282,28.88852779,罗汉街道北方路1号,四川省,泸州市,龙马潭区,金融保险服务;银行;中国工商银行
中国工商银行(泸州分行营业部),105.4479381,28.89294909,迎晖路100号,四川省,泸州市,江阳区,金融保险服务;银行;中国工商银行
中国工商银行(泸州南城支行),105.4521906,28.88251092,中平远路28号,四川省,泸州市,江阳区,金融保险服务;银行;中国工商银行
中国工商银行(泸州江阳支行),105.4497122,28.88820202,一环路与肖巷子路交叉口东南100米,四川省,泸州市,江阳区,金融保险服务;银行;中国工商银行
中国工商银行泸州市分行营业部(工会驿站),105.4480641,28.89294109,迎晖路100号,四川省,泸州市,江阳区,金融保险服务;银行;中国工商银行
中国工商银行(泸州分行),105.44794,28.89299609,,四川省,泸州市,江阳区,金融保险服务;银行;中国工商银行
中国工商银行(泸州江阳南路支行),105.4448717,28.87664924,江阳南路段29号,四川省,泸州市,江阳区,金融保险服务;银行;中国工商银行
中国工商银行(泸州蓝田支行),105.439631,28.85559548,蓝田街道蓝星街1号,四川省,泸州市,江阳区,金融保险服务;银行;中国工商银行
中国工商银行(泸州小市支行),105.442043,28.89929934,下合道街72-80号,四川省,泸州市,龙马潭区,金融保险服务;银行;中国工商银行
中国工商银行(泸州忠山支行),105.4413151,28.88762039,忠山路三段23号,四川省,泸州市,江阳区,金融保险服务;银行;中国工商银行
中国工商银行(龙马潭支行),105.4333196,28.91122671,"莲花池街道龙马大道二段265,267号",四川省,泸州市,龙马潭区,金融保险服务;银行;中国工商银行
中国工商银行大山坪支行(工会驿站),105.4391586,28.87308149,大山坪江阳西路1号(泸州市政府旁),四川省,泸州市,江阳区,金融保险服务;银行;中国工商银行
中国工商银行(泸州红星支行),105.4331129,28.90419573,龙南路243-249号,四川省,泸州市,龙马潭区,金融保险服务;银行;中国工商银行
中国工商银行,105.4391326,28.87309849,大山坪路北段与一环路交叉口南20米,四川省,泸州市,江阳区,金融保险服务;银行;中国工商银行
中国工商银行百子图支行(工会驿站),105.4321206,28.87842779,星光路67号,四川省,泸州市,江阳区,金融保险服务;银行;中国工商银行
中国工商银行(泸州城西支行),105.4252095,28.8735451,江阳西路49号富川花园1栋1层4号,四川省,泸州市,江阳区,金融保险服务;银行;中国工商银行
中国工商银行(柏香林支行),105.4223347,28.89169521,红星街道香林路二段193-195号,四川省,泸州市,龙马潭区,金融保险服务;银行;中国工商银行
中国工商银行(泸州龙南支行),105.4234367,28.90285115,龙马大道一段259号,四川省,泸州市,龙马潭区,金融保险服务;银行;中国工商银行
中国工商银行,105.4321106,28.87845779,兴城西苑东北门西北70米,四川省,泸州市,江阳区,金融保险服务;银行;中国工商银行
中国工商银行(自贸区支行),105.4104264,28.9160047,蜀泸大道中国西南商贸城1栋2层,四川省,泸州市,龙马潭区,金融保险服务;银行;中国工商银行
中国工商银行(泸州龙透关支行),105.4126297,28.87380265,轩景上路与一环路交叉口北100米,四川省,泸州市,江阳区,金融保险服务;银行;中国工商银行
中国工商银行(泸州纳溪支行),105.3744513,28.77645844,永宁街道人民东路93、95号,四川省,泸州市,纳溪区,金融保险服务;银行;中国工商银行
中国工商银行(泸县支行),105.3739743,29.13981482,玉蟾街道龙脑大道56号,四川省,泸州市,泸县,金融保险服务;银行;中国工商银行
中国工商银行(泸县龙城支行),105.3783327,29.15220261,玉蟾街道花园路18号,四川省,泸州市,泸县,金融保险服务;银行;中国工商银行
中国工商银行(泸县玉蟾支行),105.3703218,29.15140294,玉蟾街道龙脑大道509号,四川省,泸州市,泸县,金融保险服务;银行;中国工商银行
中国工商银行(江安支行),105.0683703,28.72924165,中心路家家乐超市楼下3-9号,四川省,宜宾市,江安县,金融保险服务;银行;中国工商银行
中国工商银行(江安支行),105.0584341,28.72477514,南屏大道与学府大道交叉口西60米,四川省,宜宾市,江安县,金融保险服务;银行;中国工商银行
中国工商银行(宜宾南溪支行),104.9789967,28.83783237,下正街154-162,四川省,宜宾市,南溪区,金融保险服务;银行;中国工商银行
中国工商银行,104.9651976,28.83274305,锦西路与福临路交叉口北100米,四川省,宜宾市,南溪区,金融保险服务;银行;中国工商银行
中国工商银行(宜宾仙源支行),104.9561872,28.82344552,正信路236号康安江城二期4幢1楼5-8号门市,四川省,宜宾市,南溪区,金融保险服务;银行;中国工商银行
中国工商银行(富顺支行营业室),104.9908293,29.18120788,富世街道釜江大道东段188号,四川省,自贡市,富顺县,金融保险服务;银行;中国工商银行
中国工商银行(晨光支行),104.9733474,29.18085364,釜江大道中段161号,四川省,自贡市,富顺县,金融保险服务;银行;中国工商银行
中国工商银行(北湖支行),104.9777312,29.1876724,富州大道中段22号,四川省,自贡市,富顺县,金融保险服务;银行;中国工商银行
中国工商银行(西城领御营业厅),104.9555087,29.18667938,富世镇富州大道西段西城领御旁,四川省,自贡市,富顺县,金融保险服务;银行;中国工商银行
中国工商银行(长宁支行营业室),104.9127039,28.5787179,竹海路一段66-84号,四川省,宜宾市,长宁县,金融保险服务;银行;中国工商银行
中国工商银行(竹海支行),104.9183099,28.58736258,洪泽路2段289号,四川省,宜宾市,长宁县,金融保险服务;银行;中国工商银行
中国工商银行(自贡沿滩支行),104.8721413,29.27304438,开元南路与安居巷交叉口东南40米,四川省,自贡市,沿滩区,金融保险服务;银行;中国工商银行
中国工商银行(西门支行),103.8219912,30.04419802,诗书路1号,四川省,眉山市,东坡区,金融保险服务;银行;中国工商银行
中国工商银行(眉山分行营业部),103.8324866,30.04970343,三苏路81号,四川省,眉山市,东坡区,金融保险服务;银行;中国工商银行|购物服务;购物相关场所;购物相关场所
中国工商银行(眉山城北支行),103.8358343,30.06439199,香颂城2号门东北150米,四川省,眉山市,东坡区,金融保险服务;银行;中国工商银行
中国工商银行,103.846984,30.05114975,红星东路二段与二环东路辅路交叉口西20米,四川省,眉山市,东坡区,金融保险服务;银行;中国工商银行
中国工商银行,103.8479591,30.05998553,眉山市图书馆星梦艺术分馆西南侧50米,四川省,眉山市,东坡区,金融保险服务;银行;中国工商银行
中国工商银行(眉山新区大市场支行),103.8540084,30.06939907,眉山大市场西2门旁,四川省,眉山市,东坡区,金融保险服务;银行;中国工商银行
中国工商银行(彭山支行),103.8641018,30.1916882,张纲路与紫薇路交叉口西南20米,四川省,眉山市,彭山区,金融保险服务;银行;中国工商银行
中国工商银行(彭山北街支行),103.8743739,30.19638366,古城北路与龙腾街交叉口西40米,四川省,眉山市,彭山区,金融保险服务;银行;中国工商银行
中国工商银行(仁寿黑龙滩支行),104.0227353,30.12355264,四海生活小镇商业街道1栋,四川省,眉山市,仁寿县,金融保险服务;银行;中国工商银行
中国工商银行(朝阳大道支行),103.5194511,30.19928881,朝阳大道335号7幢2单元1层14号,四川省,成都市,蒲江县,金融保险服务;银行;中国工商银行
中国工商银行(蒲江支行),103.5041118,30.19800758,大北街4号附1号,四川省,成都市,蒲江县,金融保险服务;银行;中国工商银行
中国工商银行(天府科学城支行),104.0713423,30.39671866,天府新区成都科学城天府菁蓉中心D区商业A6号楼1512-1514号临街商铺,四川省,成都市,双流区,金融保险服务;银行;中国工商银行
中国工商银行(名山支行),103.1052778,30.0740483,茶都大道449号,四川省,雅安市,名山区,金融保险服务;银行;中国工商银行
中国工商银行(万达支行),104.6152576,30.12800191,,四川省,资阳市,雁江区,金融保险服务;银行;中国工商银行
中国工商银行(资阳临空支行),104.5592278,30.18503226,宝珠东路1号产业孵化中心2-1-109,四川省,资阳市,雁江区,金融保险服务;银行;中国工商银行
中国工商银行(资阳娇子大道支行),104.626394,30.12851149,娇子大道京龙领地坐标附近,四川省,资阳市,雁江区,金融保险服务;银行;中国工商银行
中国工商银行(车城大道分理处),104.6289578,30.14509119,车城大道三段四季花园A区3号楼5-7号,四川省,资阳市,雁江区,金融保险服务;银行;中国工商银行
中国工商银行(雅安芦山支行),102.9297814,30.14700505,迎宾大道346号1栋1楼1号,四川省,雅安市,芦山县,金融保险服务;银行;中国工商银行
中国工商银行(资阳广场路支行),104.6302039,30.13422228,罗家坝小区雁城路1栋1号,四川省,资阳市,雁江区,金融保险服务;银行;中国工商银行|金融保险服务;银行相关;银行相关
中国工商银行(沱东分理处),104.6708593,30.1074321,西南电商城,四川省,资阳市,雁江区,金融保险服务;银行;中国工商银行
中国工商银行(芦山支行),102.9206764,30.15302939,中心街13号,四川省,雅安市,芦山县,金融保险服务;银行;中国工商银行
中国工商银行,104.6387363,30.12990901,公园路与凤园路交叉口东120米,四川省,资阳市,雁江区,金融保险服务;银行;中国工商银行
中国工商银行(天全支行),102.7590261,30.0600908,向阳大道185号(近天全县汽车站),四川省,雅安市,天全县,金融保险服务;银行;中国工商银行
中国工商银行(西充安汉支行),105.8891967,30.99322842,安汉大道二段与雨台路交叉口南20米,四川省,南充市,西充县,金融保险服务;银行;中国工商银行
中国工商银行(西充支行),105.8984631,31.00760305,"安汉大道北二段127,129,131号",四川省,南充市,西充县,金融保险服务;银行;中国工商银行
中国工商银行(赤城支行),105.7101205,30.77757315,赤城镇中河街56号,四川省,遂宁市,蓬溪县,金融保险服务;银行;中国工商银行
中国工商银行(蓬溪支行营业室),105.6994497,30.75832461,赤城镇迎宾大道,四川省,遂宁市,蓬溪县,金融保险服务;银行;中国工商银行
中国工商银行(蓬安支行),106.4089619,31.02646148,丝绸街2号,四川省,南充市,蓬安县,金融保险服务;银行;中国工商银行
中国工商银行(河东支行),105.6057598,30.51936813,东平南路6号东方明珠E栋附属楼1-2层,四川省,遂宁市,船山区,金融保险服务;银行;中国工商银行
中国工商银行(遂宁分行),105.5624118,30.53089737,遂州北路159号,四川省,遂宁市,船山区,金融保险服务;银行;中国工商银行
中国工商银行(遂宁东升分理处),105.5857898,30.52944967,东升路6、8号,四川省,遂宁市,船山区,金融保险服务;银行;中国工商银行
中国工商银行(工业园区支行),105.5927356,30.48691275,南津北路795号,四川省,遂宁市,船山区,金融保险服务;银行;中国工商银行
中国工商银行(遂州支行),105.5767017,30.50483712,遂州中路2号,四川省,遂宁市,船山区,金融保险服务;银行;中国工商银行
中国工商银行(南津支行),105.5860484,30.49405691,南津路194-196号,四川省,遂宁市,船山区,金融保险服务;银行;中国工商银行
中国工商银行(遂宁凯旋支行),105.5817844,30.50115499,凯旋下路262号,四川省,遂宁市,船山区,金融保险服务;银行;中国工商银行
中国工商银行(经济开发区支行),105.5498879,30.53396572,明月路明月星城1层495、497、499、501号,四川省,遂宁市,船山区,金融保险服务;银行;中国工商银行
中国工商银行(金海支行),105.5602084,30.52543447,嘉禾西路金海岸大酒店1楼,四川省,遂宁市,船山区,金融保险服务;银行;中国工商银行
中国工商银行(裕丰支行),105.5711989,30.50971825,遂州中路263号,四川省,遂宁市,船山区,金融保险服务;银行;中国工商银行
中国工商银行(物流港支行),105.569495,30.46999559,318国道,四川省,遂宁市,船山区,金融保险服务;银行;中国工商银行
中国工商银行(内江壕子口支行),105.0358356,29.58829824,壕子口路990号,四川省,内江市,市中区,金融保险服务;银行;中国工商银行
中国工商银行(内江万达广场支行),105.0411639,29.6060469,汉安大道974号附近,四川省,内江市,东兴区,金融保险服务;银行;中国工商银行
中国工商银行(内江汉安支行),105.0544366,29.60560839,汉安大道西382号附1号,四川省,内江市,东兴区,金融保险服务;银行;中国工商银行
中国工商银行(玉溪路分理处),105.0508906,29.57958371,玉溪路439、.441、443号,四川省,内江市,市中区,金融保险服务;银行;中国工商银行
中国工商银行(中兴支行),105.0657729,29.59907799,内西林大道月亮湾街142号(内江西林大道月亮街口),四川省,内江市,东兴区,金融保险服务;银行;中国工商银行
中国工商银行(大同支行),105.0653105,29.5862311,,四川省,内江市,市中区,金融保险服务;银行;中国工商银行
中国工商银行(江华街分理处),105.0550773,29.57098661,江华街6号附7-8号,四川省,内江市,市中区,金融保险服务;银行;中国工商银行
中国工商银行,105.064853,29.58240015,文英街,四川省,内江市,市中区,金融保险服务;银行;中国工商银行
中国工商银行(西林新区分理处),105.0704977,29.60457877,汉安大道89号A幢9-11号,四川省,内江市,东兴区,金融保险服务;银行;中国工商银行
中国工商银行(东兴支行),105.0726866,29.59245177,中兴路124-126号(内江东兴镇四医院对面),四川省,内江市,东兴区,金融保险服务;银行;中国工商银行
中国工商银行(蟠龙坝支行),105.0654132,29.57396118,交通路515号,四川省,内江市,市中区,金融保险服务;银行;中国工商银行
中国工商银行(高桥支行),105.0968697,29.60550773,汉安大道东二段71-73号,四川省,内江市,东兴区,金融保险服务;银行;中国工商银行
中国工商银行(内江白马支行),104.9893321,29.53093152,工商街96号,四川省,内江市,市中区,金融保险服务;银行;中国工商银行
中国工商银行,105.0887254,29.50536873,蓉关大道与玉屏街交叉口北40米,四川省,内江市,东兴区,金融保险服务;银行;中国工商银行
中国工商银行,104.8464648,29.75810822,资州大道与凤祥中路交叉口东100米,四川省,内江市,资中县,金融保险服务;银行;中国工商银行
中国工商银行(笔架山分理处),104.8502922,29.76793398,广场花园南门旁,四川省,内江市,资中县,金融保险服务;银行;中国工商银行
中国工商银行(资中水南支行),104.8416017,29.77118029,武陵大道1-3号,四川省,内江市,资中县,金融保险服务;银行;中国工商银行
中国工商银行(资中支行中街分理处),104.84845,29.77619197,西街173号,四川省,内江市,资中县,金融保险服务;银行;中国工商银行
中国工商银行(威远支行营业室),104.6670244,29.52833184,东一街62号,四川省,内江市,威远县,金融保险服务;银行;中国工商银行
中国工商银行(鸿鹤坝支行),104.7875043,29.35123839,三八路景城·东源半岛小区14号底层商4-6号,四川省,自贡市,自流井区,金融保险服务;银行;中国工商银行
中国工商银行(隆昌支行营业室),105.2722638,29.34478327,隆华路一段3-13号,四川省,内江市,隆昌市,金融保险服务;银行;中国工商银行
中国工商银行(五星街支行),104.7687672,29.35885114,五星街307-309号,四川省,自贡市,自流井区,金融保险服务;银行;中国工商银行
中国工商银行,104.6691489,29.53625267,威远大道与锦城路交叉口西60米,四川省,内江市,威远县,金融保险服务;银行;中国工商银行
中国工商银行,104.6580916,29.5213573,高升花园西门东120米,四川省,内江市,威远县,金融保险服务;银行;中国工商银行
中国工商银行银行卡中心,104.7633265,29.3560104,尚义灏路二支路附1号,四川省,自贡市,自流井区,金融保险服务;银行;中国工商银行
中国工商银行(自贡丹桂支行),104.7747819,29.34447201,高新区汇东丹桂北大街街97号(汇东丹桂大街加油站对面),四川省,自贡市,自流井区,金融保险服务;银行;中国工商银行
中国工商银行,104.7632045,29.3560144,一医院斜对面,四川省,自贡市,自流井区,金融保险服务;银行;中国工商银行
中国工商银行(隆昌红旗支行),105.2858844,29.33877475,顺河街74号,四川省,内江市,隆昌市,金融保险服务;银行;中国工商银行
中国工商银行(汇新支行),104.7779918,29.33281997,汇兴路197号,四川省,自贡市,自流井区,金融保险服务;银行;中国工商银行
中国工商银行(自贡龙湖支行),104.8111709,29.3126647,沿滩新城通达路66号远达龙湖领御三期4栋商业1-11-21-3号,四川省,自贡市,沿滩区,金融保险服务;银行;中国工商银行
中国工商银行(南街支行),105.2839617,29.33506984,大南街142号,四川省,内江市,隆昌市,金融保险服务;银行;中国工商银行
中国工商银行(自贡高新科技支行),104.7697309,29.3362353,高新区龙汇北街165号,四川省,自贡市,自流井区,金融保险服务;银行;中国工商银行
中国工商银行(自贡时代大道支行),104.7954569,29.31484037,"沿滩新城时代大道126号贡爵府27号楼1层1-01,1-02,1-03,1-04,1-05号,1-23号",四川省,自贡市,沿滩区,金融保险服务;银行;中国工商银行
中国工商银行(光大街支行),104.7526397,29.34688795,光大街71号,四川省,自贡市,自流井区,金融保险服务;银行;中国工商银行
中国工商银行(新华支行),105.2922749,29.33379151,隆泸大道279-289号,四川省,内江市,隆昌市,金融保险服务;银行;中国工商银行
中国工商银行(南湖支行),104.7790311,29.32306501,南湖郡西区2号门旁,四川省,自贡市,自流井区,金融保险服务;银行;中国工商银行
中国工商银行(汇川支行),104.7509953,29.32984617,汇川路1798号、1800号,四川省,自贡市,自流井区,金融保险服务;银行;中国工商银行
工行汇南路支行工会驿站,104.7649761,29.31816067,龙汇街二段307号,四川省,自贡市,自流井区,金融保险服务;银行;中国工商银行
中国工商银行(自贡汇南路支行),104.7649972,29.31817867,南湖领御3期西北门东440米,四川省,自贡市,自流井区,金融保险服务;银行;中国工商银行
中国工商银行(马吃水支行),104.7348872,29.33213486,马吃水盐都大道中段盐都花园右侧富丽大厦1层,四川省,自贡市,自流井区,金融保险服务;银行;中国工商银行
中国工商银行(自贡贡井支行),104.7147898,29.34753359,贡井区财政局东门旁,四川省,自贡市,贡井区,金融保险服务;银行;中国工商银行
中国工商银行,104.7178256,29.33569457,创兴·西城尚峰东北门西北100米,四川省,自贡市,贡井区,金融保险服务;银行;中国工商银行
中国工商银行(攀枝花建设街支行),101.7067356,26.5832758,人民街203号附8、9、10、11号精英汇城1楼(攀枝花影城斜对面),四川省,攀枝花市,东区,金融保险服务;银行;中国工商银行
工会驿站(工行建设街支行爱的里程站点),101.7067366,26.5832758,人民街203号附8、9、10、11号,四川省,攀枝花市,东区,金融保险服务;银行;中国工商银行
中国工商银行(炳草岗支行),101.710503,26.58186034,炳草岗大街99号,四川省,攀枝花市,东区,金融保险服务;自动提款机;中国工商银行ATM|金融保险服务;银行;中国工商银行
工会驿站(建行府花园支行爱的里程站点),101.7142176,26.56676262,三线大道北段20号附3号,四川省,攀枝花市,东区,金融保险服务;银行;中国工商银行
中国工商银行(竹湖园支行),101.718707,26.57866735,攀枝花大道东段492号,四川省,攀枝花市,东区,金融保险服务;银行;中国工商银行
中国工商银行(学园路支行),101.7207103,26.57522925,攀枝花大道东段407号(近良友天桥),四川省,攀枝花市,东区,金融保险服务;银行;中国工商银行
工会驿站(工行花学园路支行爱的里程站点),101.7207323,26.57522825,攀枝花大道东段485号,四川省,攀枝花市,东区,金融保险服务;银行;中国工商银行
东区中国工商银行,101.7030339,26.54406642,攀枝花大道中段497号网源大楼,四川省,攀枝花市,东区,金融保险服务;银行;中国工商银行
中国工商银行,101.7245162,26.55911257,钢城经贸大厦A座西北侧,四川省,攀枝花市,东区,金融保险服务;银行;中国工商银行
中国工商银行(瓜子坪支行),101.7358355,26.58926738,瓜子坪街25号,四川省,攀枝花市,东区,金融保险服务;银行;中国工商银行
中国工商银行(攀枝花市分行五十一支行),101.7131847,26.51680844,攀枝花大道南段812号附114号(五十一派出所旁),四川省,攀枝花市,仁和区,金融保险服务;银行;中国工商银行
中国工商银行(仁和广场支行),101.7274975,26.50128923,仁和镇宝兴北街127号,四川省,攀枝花市,仁和区,金融保险服务;银行;中国工商银行
中国工商银行(仁和支行),101.7333052,26.49735961,仁和街与同安巷交叉口东南60米,四川省,攀枝花市,仁和区,金融保险服务;银行;中国工商银行
中国工商银行(攀枝花分行金江支行),101.844726,26.5429856,金江镇彩虹路116号,四川省,攀枝花市,仁和区,金融保险服务;银行;中国工商银行
中国工商银行(盐边支行),101.8489108,26.67614528,桐子林镇东环南路20号、20-1号1层,四川省,攀枝花市,盐边县,金融保险服务;银行;中国工商银行
中国工商银行(盐边红格支行),101.9222763,26.53769022,红格镇温泉大道147号-157号,四川省,攀枝花市,盐边县,金融保险服务;银行;中国工商银行
中国工商银行(攀枝花米易支行),102.1053404,26.88750486,城中街与北街交叉口西北40米,四川省,攀枝花市,米易县,金融保险服务;银行;中国工商银行
中国工商银行(米易城北支行),102.1093512,26.89484003,攀莲镇向阳路2-4号,四川省,攀枝花市,米易县,金融保险服务;银行;中国工商银行
中国工商银行(会理支行),102.2439628,26.65731969,广场路1、3、5号(近会理广场),四川省,凉山彝族自治州,会理市,金融保险服务;银行;中国工商银行
工会驿站(工行城北支行迷昜驿站),102.1093572,26.89495603,安宁路48、48、50号,四川省,攀枝花市,米易县,金融保险服务;银行;中国工商银行
中国工商银行(会东支行),102.5722953,26.63048897,三鑫路南段119号,四川省,凉山彝族自治州,会东县,金融保险服务;银行;中国工商银行
中国工商银行(安居支行),105.4528973,30.35443405,安居大道中段555号附近,四川省,遂宁市,安居区,金融保险服务;银行;中国工商银行
中国工商银行(安岳支行),105.3502718,30.11191911,普州大道北段197-201号,四川省,资阳市,安岳县,金融保险服务;银行;中国工商银行
中国工商银行(安岳柠都支行),105.348744,30.10176423,柠都大道菲美斯酒店对面,四川省,资阳市,安岳县,金融保险服务;银行;中国工商银行
中国工商银行(安岳县正北街支行),105.3338694,30.09882775,岳阳镇正北街36、38、40、42、44号,四川省,资阳市,安岳县,金融保险服务;银行;中国工商银行
中国工商银行(安岳顺城街支行),105.3312215,30.09683886,顺成街7941号,四川省,资阳市,安岳县,金融保险服务;银行;中国工商银行
中国工商银行(宜宾江北支行),104.6015015,28.78825511,五粮液大道中段旧州路6号北岸银都一楼,四川省,宜宾市,翠屏区,金融保险服务;银行;中国工商银行
中国工商银行(宜宾五粮液支行),104.590909,28.79552858,五粮液质检大楼斜对面,四川省,宜宾市,翠屏区,金融保险服务;银行;中国工商银行
中国工商银行(宜宾西郊支行),104.6142186,28.7623737,文星街130号(一医院对面),四川省,宜宾市,翠屏区,金融保险服务;银行;中国工商银行
中国工商银行(北大街支行),104.6185229,28.77020541,中山街25-37号(中山街十字路口),四川省,宜宾市,翠屏区,金融保险服务;银行;中国工商银行
中国工商银行(翠柏大道支行),104.6026219,28.75058439,翠柏大道东段156号理想城,四川省,宜宾市,翠屏区,金融保险服务;银行;中国工商银行
中国工商银行(宜宾酒都支行),104.6233322,28.76946417,,四川省,宜宾市,翠屏区,金融保险服务;银行;中国工商银行
中国工商银行(宜宾翠屏支行),104.6239667,28.76702616,东街51号附2号,四川省,宜宾市,翠屏区,金融保险服务;银行;中国工商银行
中国工商银行(南岸支行),104.6293843,28.75645798,蜀南大道西段20号附4号,四川省,宜宾市,叙州区,金融保险服务;银行;中国工商银行
中国工商银行(宜宾西区支行),104.6224974,28.74759541,崇文路鲁能山水庭园22幢1-7号,四川省,宜宾市,叙州区,金融保险服务;银行;中国工商银行
中国工商银行(宜宾长江路支行),104.6317493,28.76147582,,四川省,宜宾市,叙州区,金融保险服务;银行;中国工商银行
中国工商银行(财富广场支行),104.6234971,28.74383239,金沙江大道108号(春秋花园)3幢1层12号,四川省,宜宾市,叙州区,金融保险服务;银行;中国工商银行
中国工商银行(宜宾分行),104.63983,28.75646845,商贸路101号,四川省,宜宾市,叙州区,金融保险服务;银行;中国工商银行
中国工商银行(莱茵支行),104.647597,28.75642106,戎州路东段4号附33号,四川省,宜宾市,叙州区,金融保险服务;银行;中国工商银行
中国工商银行(宜宾三江支行),104.6617633,28.77636518,学堂路44号,四川省,宜宾市,翠屏区,金融保险服务;银行;中国工商银行
中国工商银行宜宾三江支行劳动者温馨港湾(工会驿站),104.6617483,28.77637418,僰侯路二段10号,四川省,宜宾市,翠屏区,金融保险服务;银行;中国工商银行
中国工商银行(城北支行),104.545884,28.71596164,柏溪镇城中央(成中大厦旁),四川省,宜宾市,叙州区,金融保险服务;银行;中国工商银行
中国工商银行(金江支行),104.5607012,28.70535797,南星大道八一二厂金江苑生活区,四川省,宜宾市,翠屏区,金融保险服务;银行;中国工商银行
中国工商银行(宜宾白沙支行),104.6748769,28.7911124,国兴大道与石岗路交叉口西南60米,四川省,宜宾市,翠屏区,金融保险服务;银行;中国工商银行
中国工商银行(叙州区支行),104.5429198,28.70034294,柏溪街道翠柏大道441号,四川省,宜宾市,叙州区,金融保险服务;银行;中国工商银行
中国工商银行(宜宾三角路支行),104.5296831,28.68895874,江霞路222号,四川省,宜宾市,叙州区,金融保险服务;银行;中国工商银行
中国工商银行(车站分理处),104.3571841,28.82110241,金沙江大道中段与佛光街交叉口西120米,四川省,宜宾市,屏山县,金融保险服务;银行;中国工商银行
中国工商银行(宜宾屏山支行),104.3439796,28.82925301,金沙江大道西段139-1号,四川省,宜宾市,屏山县,金融保险服务;银行;中国工商银行
中国工商银行24h,104.348886,28.83002774,民主街与屏山县商业步行街交叉口东北100米,四川省,宜宾市,屏山县,金融保险服务;银行;中国工商银行
中国工商银行(珙县支行),104.7071175,28.45493227,巡场镇滨河西街北二段1号,四川省,宜宾市,珙县,金融保险服务;银行;中国工商银行
中国工商银行(新桥街支行),104.7098968,28.45067915,珙州国际右侧,四川省,宜宾市,珙县,金融保险服务;银行;中国工商银行
中国工商银行(宜宾高县支行),104.5216304,28.43514952,庆符镇硕勋路355-361号,四川省,宜宾市,高县,金融保险服务;银行;中国工商银行
中国工商银行(沐川支行),103.8908903,28.95725496,沐源路855号,四川省,乐山市,沐川县,金融保险服务;银行;中国工商银行
中国工商银行(资阳分行),104.6383469,30.12317511,西门桥街24号,四川省,资阳市,雁江区,金融保险服务;银行;中国工商银行|金融保险服务;银行相关;银行相关
中国工商银行(和平路支行),104.6474724,30.11840483,和平中路1号,四川省,资阳市,雁江区,金融保险服务;银行;中国工商银行
